{
"type": "FeatureCollection",
"name": "nt_state_boundary",
"crs": { "type": "name", "properties": { "name": "urn:ogc:def:crs:OGC:1.3:CRS84" } },
"features": [
{ "type": "Feature", "properties": { "name": "Northern Territory", "admin": "Australia", "iso_3166_2": "AU-NT" }, "geometry": { "type": "MultiPolygon", "coordinates": [ [ [ [ 129.632498, -14.846938 ], [ 129.634939, -14.859308 ], [ 129.633637, -14.870701 ], [ 129.626638, -14.875258 ], [ 129.611827, -14.867364 ], [ 129.606456, -14.857599 ], [ 129.590099, -14.836358 ], [ 129.585216, -14.82643 ], [ 129.581309, -14.80877 ], [ 129.583018, -14.803806 ], [ 129.589041, -14.806573 ], [ 129.606456, -14.817071 ], [ 129.616466, -14.824884 ], [ 129.625987, -14.835056 ], [ 129.632498, -14.846938 ] ] ], [ [ [ 129.533458, -14.798517 ], [ 129.57781, -14.860528 ], [ 129.587087, -14.883477 ], [ 129.590994, -14.909356 ], [ 129.591482, -14.963637 ], [ 129.589122, -14.952325 ], [ 129.584809, -14.942478 ], [ 129.578949, -14.934503 ], [ 129.571544, -14.928888 ], [ 129.557791, -14.90781 ], [ 129.534841, -14.858168 ], [ 129.519786, -14.836358 ], [ 129.504649, -14.802911 ], [ 129.501964, -14.798517 ], [ 129.508149, -14.78574 ], [ 129.515473, -14.787205 ], [ 129.523936, -14.794203 ], [ 129.533458, -14.798517 ] ] ], [ [ [ 134.885265, -12.05755 ], [ 134.907237, -12.059828 ], [ 134.918224, -12.063165 ], [ 134.92628, -12.068129 ], [ 134.932872, -12.087335 ], [ 134.924815, -12.106703 ], [ 134.90797, -12.117852 ], [ 134.888357, -12.112237 ], [ 134.878103, -12.100274 ], [ 134.867198, -12.076755 ], [ 134.854259, -12.037774 ], [ 134.880219, -12.054946 ], [ 134.885265, -12.05755 ] ] ], [ [ [ 134.965256, -12.026465 ], [ 134.984485, -12.036161 ], [ 134.985986, -12.04145 ], [ 134.948729, -12.054669 ], [ 134.93521, -12.050259 ], [ 134.920789, -12.040263 ], [ 134.90937, -12.03585 ], [ 134.908472, -12.022625 ], [ 134.956246, -12.016469 ], [ 134.965256, -12.026465 ] ] ], [ [ [ 135.121962, -11.929696 ], [ 135.107484, -11.942098 ], [ 135.084852, -11.946093 ], [ 135.057697, -11.953185 ], [ 135.046072, -11.941502 ], [ 135.053888, -11.919437 ], [ 135.084468, -11.920041 ], [ 135.110854, -11.924958 ], [ 135.121962, -11.929696 ] ] ], [ [ [ 133.408702, -11.592055 ], [ 133.429047, -11.586684 ], [ 133.454275, -11.583673 ], [ 133.475434, -11.587172 ], [ 133.484386, -11.601983 ], [ 133.474376, -11.611098 ], [ 133.451671, -11.616388 ], [ 133.411794, -11.619399 ], [ 133.396169, -11.623224 ], [ 133.398448, -11.632582 ], [ 133.406505, -11.643813 ], [ 133.408702, -11.653497 ], [ 133.398774, -11.662367 ], [ 133.385753, -11.666192 ], [ 133.372081, -11.665297 ], [ 133.360199, -11.660333 ], [ 133.367035, -11.653497 ], [ 133.358409, -11.628839 ], [ 133.359548, -11.617364 ], [ 133.37086, -11.612481 ], [ 133.38087, -11.609633 ], [ 133.408702, -11.592055 ] ] ], [ [ [ 133.476899, -11.454848 ], [ 133.480805, -11.47088 ], [ 133.488943, -11.484063 ], [ 133.499522, -11.494561 ], [ 133.510997, -11.503188 ], [ 133.493337, -11.508966 ], [ 133.475841, -11.507257 ], [ 133.458995, -11.503595 ], [ 133.442882, -11.503188 ], [ 133.429698, -11.509047 ], [ 133.415294, -11.519952 ], [ 133.402599, -11.532647 ], [ 133.39503, -11.544203 ], [ 133.395518, -11.536554 ], [ 133.396821, -11.531915 ], [ 133.401866, -11.523126 ], [ 133.403005, -11.512384 ], [ 133.402354, -11.502618 ], [ 133.399587, -11.494724 ], [ 133.39503, -11.489028 ], [ 133.424001, -11.48504 ], [ 133.443696, -11.475518 ], [ 133.459727, -11.464288 ], [ 133.476899, -11.454848 ] ] ], [ [ [ 129.000116, -14.868151 ], [ 129.009776, -14.869073 ], [ 129.051036, -14.880141 ], [ 129.092052, -14.898207 ], [ 129.102306, -14.905369 ], [ 129.111583, -14.915785 ], [ 129.115489, -14.926365 ], [ 129.117035, -14.937433 ], [ 129.120291, -14.946384 ], [ 129.128673, -14.949965 ], [ 129.15504, -14.95379 ], [ 129.173188, -14.964776 ], [ 129.18393, -14.981866 ], [ 129.187348, -15.004571 ], [ 129.183849, -15.021091 ], [ 129.177745, -15.039483 ], [ 129.175548, -15.058526 ], [ 129.18393, -15.076593 ], [ 129.198009, -15.098403 ], [ 129.199229, -15.117364 ], [ 129.191905, -15.135919 ], [ 129.171723, -15.173435 ], [ 129.152599, -15.223728 ], [ 129.172048, -15.221856 ], [ 129.199962, -15.167413 ], [ 129.221446, -15.169692 ], [ 129.212738, -15.185805 ], [ 129.208181, -15.204278 ], [ 129.208263, -15.222345 ], [ 129.214122, -15.2374 ], [ 129.243663, -15.113377 ], [ 129.263031, -15.107599 ], [ 129.263357, -15.09059 ], [ 129.255626, -15.031183 ], [ 129.251801, -15.018243 ], [ 129.243337, -15.008233 ], [ 129.239024, -14.984633 ], [ 129.235688, -14.936293 ], [ 129.222992, -14.867771 ], [ 129.221446, -14.84352 ], [ 129.22877, -14.836602 ], [ 129.244395, -14.844171 ], [ 129.258962, -14.862563 ], [ 129.263031, -14.887872 ], [ 129.269298, -14.887872 ], [ 129.289236, -14.861912 ], [ 129.324392, -14.862074 ], [ 129.357921, -14.879571 ], [ 129.372895, -14.904962 ], [ 129.476573, -14.93377 ], [ 129.49586, -14.953058 ], [ 129.498302, -14.957778 ], [ 129.51295, -15.007989 ], [ 129.525157, -15.016697 ], [ 129.553559, -15.030369 ], [ 129.564138, -15.038751 ], [ 129.572439, -15.053643 ], [ 129.584483, -15.088067 ], [ 129.594737, -15.103936 ], [ 129.598155, -15.11712 ], [ 129.587576, -15.15309 ], [ 129.585216, -15.169692 ], [ 129.629405, -15.139337 ], [ 129.645518, -15.134942 ], [ 129.661957, -15.13836 ], [ 129.666759, -15.148126 ], [ 129.666515, -15.175958 ], [ 129.671723, -15.194268 ], [ 129.677257, -15.199151 ], [ 129.697276, -15.195082 ], [ 129.715994, -15.195408 ], [ 129.727061, -15.193617 ], [ 129.730968, -15.186293 ], [ 129.728526, -15.169692 ], [ 129.72169, -15.159356 ], [ 129.659028, -15.089939 ], [ 129.652029, -15.076918 ], [ 129.629893, -15.019464 ], [ 129.619314, -14.957696 ], [ 129.611827, -14.94256 ], [ 129.619802, -14.933364 ], [ 129.634532, -14.907892 ], [ 129.639903, -14.894708 ], [ 129.645518, -14.84059 ], [ 129.649181, -14.832696 ], [ 129.664806, -14.836033 ], [ 129.689708, -14.850518 ], [ 129.704112, -14.853774 ], [ 129.734711, -14.853774 ], [ 129.769542, -14.860528 ], [ 129.785655, -14.861505 ], [ 129.800548, -14.859959 ], [ 129.824718, -14.853774 ], [ 129.847992, -14.841892 ], [ 129.855235, -14.840102 ], [ 129.866466, -14.839044 ], [ 129.869802, -14.836033 ], [ 129.870942, -14.830662 ], [ 129.875987, -14.823012 ], [ 129.919688, -14.790216 ], [ 129.927257, -14.78867 ], [ 129.935395, -14.78338 ], [ 129.953624, -14.790134 ], [ 129.982432, -14.805922 ], [ 129.980154, -14.780369 ], [ 129.993337, -14.72503 ], [ 129.982432, -14.709731 ], [ 129.974864, -14.740167 ], [ 129.955251, -14.755629 ], [ 129.893077, -14.771905 ], [ 129.798595, -14.816827 ], [ 129.762706, -14.819594 ], [ 129.795665, -14.776056 ], [ 129.796886, -14.764418 ], [ 129.788585, -14.764255 ], [ 129.755382, -14.784845 ], [ 129.73699, -14.790297 ], [ 129.724132, -14.790704 ], [ 129.711599, -14.784845 ], [ 129.669932, -14.753106 ], [ 129.66505, -14.739923 ], [ 129.67335, -14.722833 ], [ 129.65211, -14.710626 ], [ 129.627208, -14.692478 ], [ 129.606781, -14.671563 ], [ 129.590099, -14.627374 ], [ 129.588064, -14.613458 ], [ 129.594737, -14.607354 ], [ 129.608653, -14.606622 ], [ 129.645518, -14.600518 ], [ 129.692719, -14.602146 ], [ 129.717621, -14.59588 ], [ 129.728526, -14.576349 ], [ 129.737478, -14.568536 ], [ 129.77768, -14.543634 ], [ 129.789399, -14.531671 ], [ 129.768077, -14.532647 ], [ 129.743175, -14.539972 ], [ 129.720063, -14.550714 ], [ 129.686534, -14.573989 ], [ 129.667328, -14.575372 ], [ 129.626231, -14.566339 ], [ 129.615977, -14.565688 ], [ 129.595388, -14.567315 ], [ 129.585216, -14.566339 ], [ 129.579926, -14.563572 ], [ 129.574555, -14.559015 ], [ 129.566661, -14.55462 ], [ 129.553884, -14.55283 ], [ 129.53533, -14.545343 ], [ 129.475352, -14.497491 ], [ 129.470714, -14.496677 ], [ 129.459646, -14.498224 ], [ 129.454845, -14.497491 ], [ 129.453298, -14.494073 ], [ 129.449067, -14.480645 ], [ 129.447439, -14.476983 ], [ 129.443126, -14.475274 ], [ 129.430431, -14.471938 ], [ 129.427013, -14.470147 ], [ 129.423676, -14.463962 ], [ 129.419932, -14.450942 ], [ 129.416759, -14.445977 ], [ 129.367361, -14.418634 ], [ 129.358084, -14.408787 ], [ 129.372895, -14.329278 ], [ 129.37672, -14.323419 ], [ 129.403087, -14.295099 ], [ 129.409353, -14.284601 ], [ 129.410899, -14.273614 ], [ 129.411143, -14.262384 ], [ 129.413341, -14.250421 ], [ 129.420909, -14.232517 ], [ 129.430349, -14.218927 ], [ 129.473806, -14.176935 ], [ 129.485606, -14.161554 ], [ 129.493175, -14.144464 ], [ 129.49586, -14.123793 ], [ 129.49586, -14.089125 ], [ 129.493337, -14.078546 ], [ 129.483246, -14.060235 ], [ 129.482188, -14.051853 ], [ 129.488617, -14.04811 ], [ 129.500255, -14.055841 ], [ 129.514822, -14.061456 ], [ 129.53004, -14.051853 ], [ 129.533376, -14.060642 ], [ 129.53533, -14.071873 ], [ 129.538829, -14.081313 ], [ 129.54713, -14.085382 ], [ 129.559744, -14.081476 ], [ 129.571137, -14.075372 ], [ 129.579926, -14.076267 ], [ 129.585216, -14.092869 ], [ 129.604666, -14.066176 ], [ 129.600841, -14.035903 ], [ 129.594249, -14.010186 ], [ 129.605724, -13.997247 ], [ 129.609141, -14.028497 ], [ 129.632579, -14.035252 ], [ 129.69044, -14.025079 ], [ 129.71754, -14.015558 ], [ 129.735606, -13.991795 ], [ 129.74586, -13.961196 ], [ 129.749197, -13.931817 ], [ 129.744884, -13.913507 ], [ 129.735037, -13.903578 ], [ 129.723643, -13.894952 ], [ 129.714854, -13.880548 ], [ 129.715994, -13.867446 ], [ 129.723155, -13.851821 ], [ 129.74171, -13.825942 ], [ 129.796153, -13.785414 ], [ 129.815929, -13.761977 ], [ 129.803722, -13.743341 ], [ 129.800304, -13.749444 ], [ 129.792979, -13.758233 ], [ 129.789399, -13.763849 ], [ 129.783214, -13.757582 ], [ 129.789236, -13.741957 ], [ 129.788422, -13.725763 ], [ 129.783214, -13.691827 ], [ 129.785492, -13.675714 ], [ 129.809825, -13.615004 ], [ 129.827403, -13.582615 ], [ 129.830903, -13.568617 ], [ 129.831554, -13.537205 ], [ 129.833507, -13.522149 ], [ 129.837738, -13.510512 ], [ 129.847423, -13.503025 ], [ 129.85906, -13.499282 ], [ 129.868663, -13.493585 ], [ 129.875336, -13.467055 ], [ 129.882579, -13.45086 ], [ 129.891287, -13.437677 ], [ 129.899262, -13.434828 ], [ 129.906586, -13.446954 ], [ 129.908458, -13.465265 ], [ 129.906749, -13.500665 ], [ 129.914724, -13.511407 ], [ 129.932953, -13.519952 ], [ 129.968923, -13.53045 ], [ 129.981944, -13.523533 ], [ 130.043224, -13.50449 ], [ 130.062348, -13.493422 ], [ 130.112804, -13.449151 ], [ 130.133962, -13.461033 ], [ 130.163748, -13.432875 ], [ 130.21461, -13.360447 ], [ 130.237315, -13.335626 ], [ 130.254161, -13.323826 ], [ 130.273204, -13.31878 ], [ 130.292328, -13.327895 ], [ 130.316661, -13.343357 ], [ 130.332286, -13.346368 ], [ 130.324474, -13.31878 ], [ 130.313975, -13.308526 ], [ 130.29477, -13.297296 ], [ 130.272634, -13.288344 ], [ 130.252452, -13.284763 ], [ 130.242524, -13.278416 ], [ 130.231212, -13.26393 ], [ 130.21461, -13.236261 ], [ 130.160492, -13.171482 ], [ 130.155528, -13.168227 ], [ 130.131358, -13.167169 ], [ 130.122732, -13.164646 ], [ 130.118663, -13.156183 ], [ 130.118907, -13.047052 ], [ 130.122569, -13.032403 ], [ 130.129893, -13.020196 ], [ 130.134613, -12.99863 ], [ 130.130138, -12.969008 ], [ 130.129893, -12.940525 ], [ 130.146983, -12.921563 ], [ 130.158865, -12.922052 ], [ 130.16863, -12.918552 ], [ 130.176036, -12.91131 ], [ 130.181, -12.901056 ], [ 130.193207, -12.912774 ], [ 130.197276, -12.926365 ], [ 130.204112, -12.937433 ], [ 130.225108, -12.942071 ], [ 130.246755, -12.937758 ], [ 130.283458, -12.919041 ], [ 130.300548, -12.914727 ], [ 130.318614, -12.90602 ], [ 130.335134, -12.885431 ], [ 130.347179, -12.861423 ], [ 130.351817, -12.842462 ], [ 130.350922, -12.780857 ], [ 130.360688, -12.750746 ], [ 130.355479, -12.732029 ], [ 130.347423, -12.712823 ], [ 130.344981, -12.695001 ], [ 130.35434, -12.672052 ], [ 130.367442, -12.672621 ], [ 130.383067, -12.680922 ], [ 130.400157, -12.681329 ], [ 130.402029, -12.6749 ], [ 130.402029, -12.663263 ], [ 130.403575, -12.652114 ], [ 130.410004, -12.647231 ], [ 130.421153, -12.644301 ], [ 130.437511, -12.630629 ], [ 130.448009, -12.626723 ], [ 130.461436, -12.63006 ], [ 130.498057, -12.648533 ], [ 130.516124, -12.654067 ], [ 130.501475, -12.632908 ], [ 130.494965, -12.619073 ], [ 130.496349, -12.605076 ], [ 130.506847, -12.596449 ], [ 130.516856, -12.603692 ], [ 130.558442, -12.681329 ], [ 130.568044, -12.686456 ], [ 130.578787, -12.688653 ], [ 130.586436, -12.694106 ], [ 130.586436, -12.709242 ], [ 130.597992, -12.703709 ], [ 130.606456, -12.706231 ], [ 130.614594, -12.711847 ], [ 130.625987, -12.714939 ], [ 130.62672, -12.712823 ], [ 130.630056, -12.708429 ], [ 130.63502, -12.703871 ], [ 130.641124, -12.701837 ], [ 130.646983, -12.703058 ], [ 130.657481, -12.708103 ], [ 130.664317, -12.709242 ], [ 130.675548, -12.708673 ], [ 130.68572, -12.70615 ], [ 130.692882, -12.700616 ], [ 130.695567, -12.691339 ], [ 130.613048, -12.667657 ], [ 130.614024, -12.669854 ], [ 130.610199, -12.672784 ], [ 130.604259, -12.674981 ], [ 130.598806, -12.674493 ], [ 130.596853, -12.672052 ], [ 130.592052, -12.662856 ], [ 130.589122, -12.660821 ], [ 130.587657, -12.656834 ], [ 130.574718, -12.639744 ], [ 130.571544, -12.636651 ], [ 130.567393, -12.631768 ], [ 130.560395, -12.628351 ], [ 130.559093, -12.62477 ], [ 130.571544, -12.619317 ], [ 130.579845, -12.619073 ], [ 130.587901, -12.621352 ], [ 130.596446, -12.622735 ], [ 130.605642, -12.619317 ], [ 130.616059, -12.61004 ], [ 130.617524, -12.603936 ], [ 130.615001, -12.597589 ], [ 130.613048, -12.588556 ], [ 130.607677, -12.584649 ], [ 130.583751, -12.585626 ], [ 130.57838, -12.58172 ], [ 130.579438, -12.568455 ], [ 130.604177, -12.504571 ], [ 130.604503, -12.487563 ], [ 130.590343, -12.462498 ], [ 130.59254, -12.452407 ], [ 130.59962, -12.444431 ], [ 130.620372, -12.436944 ], [ 130.615245, -12.427504 ], [ 130.598806, -12.413832 ], [ 130.594574, -12.411554 ], [ 130.57838, -12.406996 ], [ 130.57838, -12.400811 ], [ 130.605805, -12.386 ], [ 130.641124, -12.383233 ], [ 130.674327, -12.392348 ], [ 130.695567, -12.413832 ], [ 130.712576, -12.410903 ], [ 130.739268, -12.415623 ], [ 130.766124, -12.424737 ], [ 130.783865, -12.434991 ], [ 130.773692, -12.454278 ], [ 130.773285, -12.469171 ], [ 130.783865, -12.503188 ], [ 130.784434, -12.564874 ], [ 130.79005, -12.585138 ], [ 130.795909, -12.571547 ], [ 130.797211, -12.558201 ], [ 130.800304, -12.546157 ], [ 130.811046, -12.537367 ], [ 130.843028, -12.55934 ], [ 130.877452, -12.61712 ], [ 130.899913, -12.639825 ], [ 130.898285, -12.623793 ], [ 130.896739, -12.618422 ], [ 130.893728, -12.613051 ], [ 130.90919, -12.597833 ], [ 130.930512, -12.603285 ], [ 130.968598, -12.626723 ], [ 130.957774, -12.59881 ], [ 130.933767, -12.580743 ], [ 130.906505, -12.564874 ], [ 130.886241, -12.544203 ], [ 130.876231, -12.524672 ], [ 130.87379, -12.513604 ], [ 130.88087, -12.509047 ], [ 130.899913, -12.509454 ], [ 130.919932, -12.514093 ], [ 130.950857, -12.530938 ], [ 130.968598, -12.537367 ], [ 130.962413, -12.519952 ], [ 130.952485, -12.506768 ], [ 130.930919, -12.486098 ], [ 130.923595, -12.483331 ], [ 130.903819, -12.482517 ], [ 130.899913, -12.479099 ], [ 130.897797, -12.471449 ], [ 130.893321, -12.463556 ], [ 130.882823, -12.451349 ], [ 130.866954, -12.444594 ], [ 130.855968, -12.453058 ], [ 130.843598, -12.459649 ], [ 130.824718, -12.447931 ], [ 130.821951, -12.439142 ], [ 130.826671, -12.430352 ], [ 130.830414, -12.418715 ], [ 130.824718, -12.400811 ], [ 130.858735, -12.393324 ], [ 130.847667, -12.37949 ], [ 130.855479, -12.368259 ], [ 130.886241, -12.352472 ], [ 130.893565, -12.344903 ], [ 130.895193, -12.338637 ], [ 130.897634, -12.334242 ], [ 130.907237, -12.331964 ], [ 130.916515, -12.332778 ], [ 130.921397, -12.336847 ], [ 130.925792, -12.341974 ], [ 130.93393, -12.346124 ], [ 131.025157, -12.360528 ], [ 131.05128, -12.373468 ], [ 131.051768, -12.353774 ], [ 131.046153, -12.340509 ], [ 131.030121, -12.318292 ], [ 131.026378, -12.304132 ], [ 131.030121, -12.253106 ], [ 131.02475, -12.234145 ], [ 131.001475, -12.206231 ], [ 130.996104, -12.191339 ], [ 131.000173, -12.171319 ], [ 131.010916, -12.15602 ], [ 131.026134, -12.147149 ], [ 131.043793, -12.146254 ], [ 131.052908, -12.150567 ], [ 131.071462, -12.164483 ], [ 131.077891, -12.167413 ], [ 131.085216, -12.164158 ], [ 131.096202, -12.149347 ], [ 131.105968, -12.146254 ], [ 131.116384, -12.15488 ], [ 131.12672, -12.170831 ], [ 131.137869, -12.18255 ], [ 131.162771, -12.173923 ], [ 131.188162, -12.200779 ], [ 131.205577, -12.208429 ], [ 131.216482, -12.214939 ], [ 131.221934, -12.228204 ], [ 131.23227, -12.238539 ], [ 131.257335, -12.236261 ], [ 131.239024, -12.212172 ], [ 131.236176, -12.201593 ], [ 131.239106, -12.193455 ], [ 131.253917, -12.177179 ], [ 131.257335, -12.170831 ], [ 131.257986, -12.149347 ], [ 131.260102, -12.134942 ], [ 131.271007, -12.098565 ], [ 131.27296, -12.067071 ], [ 131.27711, -12.05755 ], [ 131.287364, -12.047296 ], [ 131.296235, -12.043878 ], [ 131.302582, -12.04811 ], [ 131.30714, -12.071547 ], [ 131.316173, -12.084161 ], [ 131.318207, -12.095392 ], [ 131.318207, -12.140232 ], [ 131.327891, -12.185317 ], [ 131.346853, -12.219659 ], [ 131.37379, -12.246759 ], [ 131.406912, -12.27044 ], [ 131.42628, -12.281183 ], [ 131.447765, -12.289809 ], [ 131.470388, -12.295668 ], [ 131.492931, -12.297784 ], [ 131.514659, -12.29518 ], [ 131.556895, -12.285089 ], [ 131.578868, -12.284112 ], [ 131.590831, -12.287205 ], [ 131.612804, -12.296645 ], [ 131.624197, -12.293878 ], [ 131.706879, -12.282159 ], [ 131.784353, -12.27044 ], [ 131.820079, -12.257501 ], [ 131.839692, -12.246759 ], [ 131.864268, -12.225844 ], [ 131.87436, -12.220636 ], [ 131.885509, -12.217055 ], [ 131.896983, -12.215916 ], [ 131.904633, -12.219822 ], [ 131.907563, -12.229181 ], [ 131.909679, -12.240411 ], [ 131.914073, -12.250095 ], [ 131.933849, -12.26393 ], [ 131.977061, -12.277927 ], [ 132.001964, -12.292657 ], [ 132.025157, -12.296563 ], [ 132.045665, -12.307387 ], [ 132.057872, -12.306736 ], [ 132.078461, -12.297784 ], [ 132.115571, -12.275567 ], [ 132.15089, -12.24627 ], [ 132.166515, -12.22503 ], [ 132.171235, -12.222101 ], [ 132.216319, -12.208429 ], [ 132.222179, -12.198826 ], [ 132.229991, -12.170343 ], [ 132.236176, -12.160577 ], [ 132.251313, -12.156345 ], [ 132.262218, -12.164972 ], [ 132.268809, -12.180841 ], [ 132.270844, -12.198175 ], [ 132.278331, -12.228204 ], [ 132.296723, -12.226658 ], [ 132.321137, -12.211602 ], [ 132.346039, -12.201593 ], [ 132.361339, -12.202244 ], [ 132.371837, -12.206964 ], [ 132.379893, -12.215997 ], [ 132.411876, -12.273126 ], [ 132.41684, -12.294692 ], [ 132.419607, -12.299005 ], [ 132.421641, -12.303643 ], [ 132.421153, -12.311456 ], [ 132.417003, -12.317153 ], [ 132.404063, -12.324151 ], [ 132.399425, -12.332289 ], [ 132.390636, -12.341241 ], [ 132.387543, -12.346124 ], [ 132.386485, -12.354181 ], [ 132.387543, -12.380304 ], [ 132.405284, -12.358168 ], [ 132.431977, -12.33115 ], [ 132.449392, -12.300388 ], [ 132.422862, -12.231622 ], [ 132.424164, -12.189711 ], [ 132.439626, -12.15488 ], [ 132.466156, -12.140232 ], [ 132.488943, -12.135675 ], [ 132.544688, -12.098565 ], [ 132.563975, -12.091567 ], [ 132.577322, -12.094008 ], [ 132.6067, -12.112237 ], [ 132.640961, -12.126397 ], [ 132.679047, -12.136814 ], [ 132.718598, -12.140232 ], [ 132.757579, -12.133396 ], [ 132.747081, -12.128676 ], [ 132.727061, -12.128351 ], [ 132.715994, -12.12656 ], [ 132.706228, -12.122003 ], [ 132.697113, -12.112237 ], [ 132.688731, -12.106052 ], [ 132.648936, -12.083103 ], [ 132.634532, -12.067153 ], [ 132.627208, -12.043878 ], [ 132.626964, -12.004327 ], [ 132.651052, -11.865818 ], [ 132.652192, -11.848565 ], [ 132.649262, -11.833266 ], [ 132.64088, -11.818617 ], [ 132.599864, -11.792087 ], [ 132.593028, -11.784438 ], [ 132.600597, -11.76686 ], [ 132.640798, -11.726332 ], [ 132.65447, -11.708754 ], [ 132.666759, -11.674249 ], [ 132.67628, -11.664239 ], [ 132.695567, -11.660333 ], [ 132.695567, -11.653497 ], [ 132.649669, -11.635512 ], [ 132.612559, -11.629978 ], [ 132.594981, -11.622003 ], [ 132.578868, -11.611017 ], [ 132.565196, -11.598891 ], [ 132.552094, -11.583429 ], [ 132.55128, -11.575616 ], [ 132.555919, -11.568292 ], [ 132.55893, -11.553888 ], [ 132.55128, -11.544529 ], [ 132.535899, -11.538181 ], [ 132.525157, -11.528578 ], [ 132.531016, -11.509535 ], [ 132.511567, -11.506606 ], [ 132.495372, -11.47617 ], [ 132.434906, -11.44671 ], [ 132.415538, -11.440606 ], [ 132.369884, -11.434991 ], [ 132.346934, -11.438246 ], [ 132.31129, -11.461521 ], [ 132.288829, -11.461033 ], [ 132.264985, -11.456313 ], [ 132.243663, -11.454848 ], [ 132.232758, -11.457696 ], [ 132.226329, -11.462172 ], [ 132.2199, -11.46795 ], [ 132.209483, -11.474786 ], [ 132.200531, -11.48561 ], [ 132.195811, -11.489028 ], [ 132.188813, -11.488946 ], [ 132.183442, -11.48504 ], [ 132.178233, -11.482192 ], [ 132.171235, -11.48561 ], [ 132.142426, -11.509373 ], [ 132.124522, -11.518976 ], [ 132.106456, -11.523126 ], [ 132.084727, -11.517999 ], [ 132.070079, -11.50628 ], [ 132.059093, -11.494399 ], [ 132.048106, -11.489028 ], [ 132.042817, -11.484145 ], [ 132.03712, -11.473077 ], [ 132.032563, -11.460382 ], [ 132.030772, -11.45086 ], [ 132.035655, -11.446954 ], [ 132.045909, -11.445571 ], [ 132.055512, -11.442804 ], [ 132.057953, -11.43434 ], [ 132.040701, -11.418634 ], [ 132.013927, -11.423435 ], [ 131.990489, -11.425063 ], [ 131.982188, -11.399672 ], [ 131.976085, -11.399672 ], [ 131.966075, -11.40602 ], [ 131.955251, -11.403904 ], [ 131.947765, -11.394464 ], [ 131.94809, -11.379164 ], [ 131.969493, -11.373793 ], [ 131.979503, -11.366469 ], [ 131.976085, -11.351251 ], [ 131.965587, -11.344985 ], [ 131.939626, -11.352634 ], [ 131.927745, -11.351251 ], [ 131.922618, -11.341078 ], [ 131.925792, -11.330011 ], [ 131.925548, -11.320896 ], [ 131.911306, -11.317071 ], [ 131.896169, -11.314874 ], [ 131.870942, -11.305597 ], [ 131.856212, -11.303399 ], [ 131.846934, -11.305597 ], [ 131.824392, -11.314874 ], [ 131.815684, -11.317071 ], [ 131.767589, -11.310805 ], [ 131.76588, -11.307224 ], [ 131.774262, -11.299574 ], [ 131.788829, -11.29225 ], [ 131.804861, -11.29046 ], [ 131.789724, -11.26336 ], [ 131.800548, -11.26336 ], [ 131.822032, -11.273614 ], [ 131.838878, -11.277439 ], [ 131.846934, -11.26336 ], [ 131.838145, -11.244399 ], [ 131.82488, -11.223077 ], [ 131.819102, -11.201593 ], [ 131.826834, -11.204034 ], [ 131.848481, -11.207289 ], [ 131.856212, -11.211602 ], [ 131.8685, -11.220798 ], [ 131.874766, -11.215997 ], [ 131.876801, -11.20672 ], [ 131.876475, -11.201593 ], [ 131.869884, -11.194757 ], [ 131.87436, -11.181248 ], [ 131.882498, -11.17197 ], [ 131.886729, -11.177423 ], [ 131.890147, -11.184503 ], [ 131.90504, -11.199884 ], [ 131.936046, -11.246759 ], [ 131.940278, -11.251397 ], [ 131.946951, -11.249933 ], [ 131.962413, -11.242608 ], [ 131.983246, -11.226251 ], [ 131.982595, -11.209405 ], [ 131.973399, -11.190362 ], [ 131.968598, -11.167576 ], [ 131.986664, -11.176528 ], [ 131.989757, -11.168634 ], [ 131.982188, -11.147068 ], [ 131.981619, -11.13006 ], [ 131.985606, -11.129164 ], [ 131.996104, -11.135431 ], [ 132.014334, -11.139581 ], [ 132.022227, -11.147068 ], [ 132.031749, -11.163507 ], [ 132.044607, -11.179946 ], [ 132.07781, -11.192478 ], [ 132.073904, -11.218032 ], [ 132.085948, -11.228936 ], [ 132.096202, -11.224705 ], [ 132.106212, -11.213637 ], [ 132.114513, -11.208754 ], [ 132.120128, -11.222101 ], [ 132.118337, -11.228448 ], [ 132.108653, -11.245864 ], [ 132.106456, -11.252862 ], [ 132.107595, -11.261489 ], [ 132.112153, -11.276788 ], [ 132.113292, -11.287042 ], [ 132.107107, -11.317071 ], [ 132.10727, -11.331964 ], [ 132.11671, -11.338149 ], [ 132.121918, -11.34002 ], [ 132.124766, -11.343032 ], [ 132.127778, -11.343683 ], [ 132.1338, -11.338149 ], [ 132.134776, -11.331313 ], [ 132.131684, -11.323175 ], [ 132.131358, -11.313735 ], [ 132.140636, -11.303399 ], [ 132.153005, -11.326349 ], [ 132.151052, -11.355727 ], [ 132.152517, -11.384698 ], [ 132.174653, -11.406427 ], [ 132.203868, -11.410333 ], [ 132.203136, -11.391697 ], [ 132.191661, -11.366469 ], [ 132.188324, -11.351251 ], [ 132.203624, -11.349542 ], [ 132.216319, -11.358575 ], [ 132.226899, -11.363865 ], [ 132.236176, -11.351251 ], [ 132.235606, -11.339451 ], [ 132.228282, -11.328709 ], [ 132.209483, -11.310805 ], [ 132.20338, -11.307875 ], [ 132.197927, -11.309503 ], [ 132.192882, -11.309747 ], [ 132.188324, -11.303399 ], [ 132.188731, -11.299574 ], [ 132.194102, -11.290216 ], [ 132.195811, -11.283624 ], [ 132.1963, -11.268243 ], [ 132.194835, -11.256036 ], [ 132.190278, -11.244073 ], [ 132.181488, -11.228936 ], [ 132.190766, -11.216892 ], [ 132.183442, -11.196059 ], [ 132.169281, -11.176365 ], [ 132.15797, -11.167576 ], [ 132.147472, -11.157322 ], [ 132.148123, -11.137302 ], [ 132.161306, -11.123712 ], [ 132.188324, -11.132745 ], [ 132.198904, -11.146905 ], [ 132.206716, -11.164972 ], [ 132.216482, -11.180759 ], [ 132.233165, -11.187433 ], [ 132.240977, -11.196466 ], [ 132.255219, -11.240411 ], [ 132.264171, -11.25628 ], [ 132.285167, -11.268487 ], [ 132.287852, -11.255466 ], [ 132.27768, -11.218683 ], [ 132.272309, -11.177504 ], [ 132.277517, -11.162205 ], [ 132.298188, -11.153253 ], [ 132.310313, -11.154555 ], [ 132.314708, -11.159845 ], [ 132.319591, -11.161798 ], [ 132.332367, -11.153253 ], [ 132.332042, -11.147719 ], [ 132.336925, -11.132745 ], [ 132.343028, -11.122003 ], [ 132.346039, -11.129327 ], [ 132.349946, -11.146254 ], [ 132.383474, -11.214451 ], [ 132.384451, -11.219171 ], [ 132.383474, -11.223403 ], [ 132.380707, -11.228936 ], [ 132.386892, -11.245782 ], [ 132.37794, -11.283136 ], [ 132.390961, -11.29046 ], [ 132.403982, -11.283136 ], [ 132.411469, -11.265883 ], [ 132.421153, -11.228936 ], [ 132.445079, -11.212498 ], [ 132.474946, -11.234145 ], [ 132.501964, -11.273696 ], [ 132.517345, -11.310805 ], [ 132.513031, -11.322035 ], [ 132.51238, -11.330336 ], [ 132.517345, -11.338149 ], [ 132.523123, -11.339044 ], [ 132.53004, -11.336358 ], [ 132.535818, -11.332696 ], [ 132.537852, -11.330743 ], [ 132.543224, -11.334893 ], [ 132.555186, -11.34824 ], [ 132.560802, -11.356215 ], [ 132.569184, -11.375421 ], [ 132.613536, -11.406427 ], [ 132.633149, -11.43727 ], [ 132.650076, -11.476658 ], [ 132.674164, -11.508396 ], [ 132.715994, -11.51629 ], [ 132.73699, -11.508233 ], [ 132.759532, -11.492364 ], [ 132.777517, -11.472263 ], [ 132.788097, -11.443617 ], [ 132.795746, -11.440118 ], [ 132.805024, -11.437758 ], [ 132.812755, -11.43434 ], [ 132.826345, -11.422296 ], [ 132.8296, -11.420668 ], [ 132.833995, -11.417901 ], [ 132.833507, -11.411391 ], [ 132.831798, -11.404392 ], [ 132.833263, -11.399672 ], [ 132.855968, -11.400323 ], [ 132.878184, -11.413507 ], [ 132.894867, -11.418878 ], [ 132.901622, -11.395929 ], [ 132.898936, -11.37184 ], [ 132.891938, -11.358494 ], [ 132.867442, -11.338149 ], [ 132.872895, -11.327895 ], [ 132.879161, -11.326349 ], [ 132.887218, -11.328871 ], [ 132.910981, -11.331801 ], [ 132.915294, -11.334731 ], [ 132.917166, -11.339288 ], [ 132.922048, -11.344985 ], [ 132.928722, -11.348077 ], [ 132.935557, -11.350193 ], [ 132.940929, -11.353936 ], [ 132.943126, -11.361749 ], [ 132.95574, -11.387465 ], [ 132.959809, -11.392185 ], [ 132.985525, -11.404229 ], [ 133.011078, -11.432794 ], [ 133.0324, -11.466892 ], [ 133.044932, -11.495212 ], [ 133.051768, -11.495212 ], [ 133.059581, -11.500258 ], [ 133.068614, -11.504327 ], [ 133.07602, -11.509942 ], [ 133.079112, -11.519708 ], [ 133.073741, -11.547784 ], [ 133.074229, -11.560968 ], [ 133.099457, -11.597101 ], [ 133.141124, -11.674574 ], [ 133.151866, -11.688735 ], [ 133.166759, -11.70436 ], [ 133.185069, -11.717055 ], [ 133.206309, -11.722345 ], [ 133.261241, -11.729587 ], [ 133.282888, -11.72088 ], [ 133.292003, -11.688246 ], [ 133.308116, -11.69199 ], [ 133.334646, -11.687677 ], [ 133.34669, -11.688246 ], [ 133.364431, -11.697361 ], [ 133.358897, -11.70436 ], [ 133.342947, -11.711114 ], [ 133.329438, -11.718683 ], [ 133.31837, -11.734633 ], [ 133.315766, -11.749119 ], [ 133.323741, -11.759454 ], [ 133.343761, -11.76336 ], [ 133.365082, -11.76336 ], [ 133.372406, -11.761 ], [ 133.376638, -11.753025 ], [ 133.388194, -11.736017 ], [ 133.397309, -11.727472 ], [ 133.407237, -11.72381 ], [ 133.416189, -11.727797 ], [ 133.422211, -11.742852 ], [ 133.418956, -11.74863 ], [ 133.410818, -11.754164 ], [ 133.404145, -11.760024 ], [ 133.405284, -11.766778 ], [ 133.411957, -11.770196 ], [ 133.421235, -11.771091 ], [ 133.439301, -11.770196 ], [ 133.464854, -11.785821 ], [ 133.478526, -11.790785 ], [ 133.484386, -11.780694 ], [ 133.491384, -11.776462 ], [ 133.506847, -11.771091 ], [ 133.523204, -11.762791 ], [ 133.532074, -11.749119 ], [ 133.543224, -11.767348 ], [ 133.542003, -11.7999 ], [ 133.533946, -11.834161 ], [ 133.524669, -11.858331 ], [ 133.532074, -11.865818 ], [ 133.539561, -11.853123 ], [ 133.550059, -11.8235 ], [ 133.55836, -11.811212 ], [ 133.583507, -11.7999 ], [ 133.589854, -11.79811 ], [ 133.600271, -11.800958 ], [ 133.603282, -11.807224 ], [ 133.603852, -11.81406 ], [ 133.6067, -11.818617 ], [ 133.615489, -11.829848 ], [ 133.622081, -11.833266 ], [ 133.637869, -11.823989 ], [ 133.655284, -11.821384 ], [ 133.661876, -11.818617 ], [ 133.670095, -11.808852 ], [ 133.682384, -11.770196 ], [ 133.698985, -11.775974 ], [ 133.716563, -11.77752 ], [ 133.734548, -11.775486 ], [ 133.751231, -11.770196 ], [ 133.765147, -11.758966 ], [ 133.802501, -11.714939 ], [ 133.829845, -11.714939 ], [ 133.837576, -11.717218 ], [ 133.842296, -11.722101 ], [ 133.845958, -11.726983 ], [ 133.850597, -11.729181 ], [ 133.867931, -11.733331 ], [ 133.885265, -11.739435 ], [ 133.901622, -11.738865 ], [ 133.915782, -11.722345 ], [ 133.933279, -11.745212 ], [ 133.938975, -11.757908 ], [ 133.932872, -11.76336 ], [ 133.918956, -11.76629 ], [ 133.908946, -11.773858 ], [ 133.901378, -11.784926 ], [ 133.895274, -11.79811 ], [ 133.870128, -11.79225 ], [ 133.846365, -11.806817 ], [ 133.834158, -11.831476 ], [ 133.843761, -11.855239 ], [ 133.891287, -11.887628 ], [ 133.943126, -11.91367 ], [ 133.984874, -11.889337 ], [ 134.007498, -11.88128 ], [ 134.013682, -11.869561 ], [ 134.018077, -11.856134 ], [ 134.025645, -11.84588 ], [ 134.040375, -11.841567 ], [ 134.056, -11.844822 ], [ 134.06837, -11.854425 ], [ 134.073416, -11.869236 ], [ 134.075531, -11.873793 ], [ 134.080251, -11.877374 ], [ 134.084809, -11.882013 ], [ 134.087087, -11.889907 ], [ 134.085704, -11.901462 ], [ 134.083507, -11.909926 ], [ 134.083181, -11.918064 ], [ 134.087087, -11.927911 ], [ 134.132172, -11.886407 ], [ 134.13795, -11.87949 ], [ 134.144298, -11.886895 ], [ 134.158702, -11.921157 ], [ 134.161632, -11.930922 ], [ 134.168305, -11.938165 ], [ 134.182791, -11.941664 ], [ 134.195079, -11.947686 ], [ 134.1963, -11.962009 ], [ 134.192068, -11.963311 ], [ 134.174653, -11.964288 ], [ 134.168956, -11.968194 ], [ 134.167817, -11.976658 ], [ 134.171723, -11.983331 ], [ 134.177745, -11.989435 ], [ 134.182628, -11.996189 ], [ 134.187755, -12.008722 ], [ 134.189708, -12.018243 ], [ 134.189464, -12.040785 ], [ 134.188487, -12.04811 ], [ 134.183849, -12.05877 ], [ 134.182628, -12.068129 ], [ 134.185802, -12.07643 ], [ 134.192882, -12.078709 ], [ 134.199962, -12.075616 ], [ 134.210785, -12.052179 ], [ 134.246837, -12.026951 ], [ 134.257823, -12.016697 ], [ 134.262055, -11.997979 ], [ 134.261892, -11.98504 ], [ 134.266287, -11.975763 ], [ 134.285004, -11.968194 ], [ 134.34669, -12.020278 ], [ 134.382172, -12.042657 ], [ 134.428966, -12.05755 ], [ 134.522227, -12.064386 ], [ 134.562022, -12.052423 ], [ 134.582693, -12.050958 ], [ 134.594249, -12.064386 ], [ 134.604666, -12.049493 ], [ 134.63266, -12.030938 ], [ 134.696544, -11.968194 ], [ 134.704763, -11.960626 ], [ 134.722911, -11.952244 ], [ 134.747569, -11.9485 ], [ 134.768565, -11.947686 ], [ 134.773692, -11.952732 ], [ 134.774425, -11.964125 ], [ 134.772227, -11.985935 ], [ 134.774587, -11.99505 ], [ 134.78004, -12.003025 ], [ 134.792247, -12.016697 ], [ 134.795909, -12.024184 ], [ 134.800955, -12.03867 ], [ 134.806407, -12.043878 ], [ 134.814626, -12.042901 ], [ 134.825938, -12.03867 ], [ 134.836192, -12.037856 ], [ 134.840587, -12.047296 ], [ 134.84669, -12.090997 ], [ 134.853201, -12.113051 ], [ 134.861095, -12.12656 ], [ 134.880626, -12.133884 ], [ 134.927419, -12.134698 ], [ 134.939952, -12.136814 ], [ 134.947276, -12.140313 ], [ 134.967052, -12.146091 ], [ 134.970958, -12.150079 ], [ 134.973643, -12.155938 ], [ 134.991384, -12.181736 ], [ 135.001231, -12.202813 ], [ 135.005056, -12.208429 ], [ 135.040538, -12.226821 ], [ 135.046072, -12.232843 ], [ 135.048839, -12.237074 ], [ 135.07016, -12.259942 ], [ 135.080333, -12.263604 ], [ 135.092459, -12.260512 ], [ 135.114919, -12.250095 ], [ 135.133556, -12.243748 ], [ 135.147221, -12.243767 ], [ 135.158124, -12.253439 ], [ 135.171993, -12.26989 ], [ 135.187854, -12.280524 ], [ 135.202717, -12.294066 ], [ 135.21759, -12.300823 ], [ 135.237804, -12.291599 ], [ 135.229991, -12.274591 ], [ 135.18889, -12.251444 ], [ 135.170075, -12.228222 ], [ 135.207774, -12.229099 ], [ 135.232556, -12.227149 ], [ 135.258311, -12.222101 ], [ 135.269225, -12.234832 ], [ 135.283095, -12.250293 ], [ 135.301929, -12.258958 ], [ 135.323497, -12.250095 ], [ 135.338145, -12.245701 ], [ 135.349294, -12.236017 ], [ 135.349376, -12.226332 ], [ 135.328666, -12.234724 ], [ 135.304896, -12.231861 ], [ 135.290037, -12.224145 ], [ 135.264288, -12.208696 ], [ 135.241498, -12.206796 ], [ 135.222684, -12.19133 ], [ 135.23756, -12.17969 ], [ 135.265302, -12.178681 ], [ 135.306977, -12.157647 ], [ 135.313487, -12.153741 ], [ 135.322602, -12.144138 ], [ 135.323904, -12.139825 ], [ 135.308889, -12.13604 ], [ 135.302948, -12.12831 ], [ 135.324728, -12.11087 ], [ 135.35144, -12.105034 ], [ 135.366267, -12.087613 ], [ 135.389012, -12.091452 ], [ 135.41505, -12.084242 ], [ 135.417679, -12.087551 ], [ 135.408794, -12.10593 ], [ 135.428592, -12.115545 ], [ 135.460219, -12.113572 ], [ 135.484874, -12.106052 ], [ 135.505138, -12.098077 ], [ 135.515515, -12.078718 ], [ 135.515497, -12.065191 ], [ 135.536242, -12.062265 ], [ 135.53528, -12.080621 ], [ 135.571544, -12.097263 ], [ 135.587901, -12.098565 ], [ 135.622081, -12.068129 ], [ 135.62672, -12.064874 ], [ 135.648936, -12.054864 ], [ 135.656098, -12.050714 ], [ 135.711997, -12.018483 ], [ 135.702092, -12.007872 ], [ 135.651703, -12.020196 ], [ 135.635753, -12.023533 ], [ 135.592947, -12.055597 ], [ 135.581065, -12.05755 ], [ 135.572276, -12.044203 ], [ 135.565826, -12.025501 ], [ 135.570717, -11.994575 ], [ 135.59254, -11.965102 ], [ 135.600597, -11.95672 ], [ 135.622081, -11.954522 ], [ 135.628266, -11.956964 ], [ 135.63087, -11.961602 ], [ 135.63502, -11.966241 ], [ 135.645681, -11.968194 ], [ 135.65504, -11.966404 ], [ 135.659353, -11.961358 ], [ 135.662608, -11.954767 ], [ 135.66977, -11.947686 ], [ 135.68393, -11.939142 ], [ 135.700938, -11.93255 ], [ 135.719737, -11.931817 ], [ 135.739268, -11.941502 ], [ 135.775157, -11.919366 ], [ 135.809825, -11.889907 ], [ 135.836762, -11.873956 ], [ 135.841075, -11.869236 ], [ 135.845063, -11.855076 ], [ 135.854666, -11.850763 ], [ 135.865896, -11.849867 ], [ 135.875255, -11.84588 ], [ 135.886974, -11.82464 ], [ 135.883149, -11.806736 ], [ 135.87379, -11.78867 ], [ 135.868419, -11.766778 ], [ 135.878184, -11.75628 ], [ 135.900401, -11.75921 ], [ 135.923595, -11.768487 ], [ 135.936778, -11.777032 ], [ 135.922128, -11.816001 ], [ 135.903417, -11.849899 ], [ 135.841075, -11.91367 ], [ 135.811209, -11.951918 ], [ 135.79363, -11.963962 ], [ 135.758474, -11.969903 ], [ 135.751231, -11.97503 ], [ 135.746918, -11.982843 ], [ 135.716907, -12.003019 ], [ 135.723843, -12.010738 ], [ 135.764659, -11.996189 ], [ 135.786469, -11.989353 ], [ 135.851085, -11.982517 ], [ 135.867035, -11.978448 ], [ 135.897227, -11.962579 ], [ 135.91627, -11.962009 ], [ 135.91627, -11.968194 ], [ 135.902599, -11.976739 ], [ 135.854747, -11.989353 ], [ 135.82838, -12.005548 ], [ 135.792817, -12.036798 ], [ 135.765391, -12.071873 ], [ 135.730724, -12.101658 ], [ 135.718166, -12.108385 ], [ 135.690535, -12.129704 ], [ 135.668823, -12.147143 ], [ 135.650073, -12.164576 ], [ 135.652138, -12.203286 ], [ 135.669031, -12.237138 ], [ 135.688856, -12.250671 ], [ 135.703739, -12.265177 ], [ 135.713669, -12.276787 ], [ 135.731944, -12.311456 ], [ 135.751801, -12.270766 ], [ 135.76531, -12.257094 ], [ 135.779063, -12.263604 ], [ 135.786469, -12.263604 ], [ 135.794444, -12.235284 ], [ 135.806895, -12.216974 ], [ 135.847423, -12.187921 ], [ 135.880138, -12.151625 ], [ 135.888927, -12.146254 ], [ 135.895763, -12.150486 ], [ 135.902599, -12.159926 ], [ 135.907481, -12.170505 ], [ 135.909434, -12.177911 ], [ 135.912608, -12.182306 ], [ 135.919932, -12.174412 ], [ 135.930512, -12.157159 ], [ 135.934581, -12.146742 ], [ 135.944347, -12.146091 ], [ 135.956554, -12.147393 ], [ 135.967784, -12.143243 ], [ 136.028575, -12.082208 ], [ 136.053477, -12.064386 ], [ 136.049327, -12.08294 ], [ 136.035899, -12.103285 ], [ 136.019867, -12.119724 ], [ 136.008637, -12.12656 ], [ 136.004649, -12.129978 ], [ 135.993663, -12.145603 ], [ 135.991384, -12.150079 ], [ 135.989594, -12.160903 ], [ 135.985037, -12.166274 ], [ 135.953868, -12.184747 ], [ 135.943614, -12.192478 ], [ 135.936778, -12.201593 ], [ 135.935395, -12.213637 ], [ 135.94044, -12.221449 ], [ 135.947032, -12.227146 ], [ 135.95045, -12.232843 ], [ 135.957367, -12.257501 ], [ 135.974457, -12.264581 ], [ 135.994884, -12.260024 ], [ 136.012462, -12.250095 ], [ 136.02589, -12.240167 ], [ 136.0442, -12.231134 ], [ 136.060232, -12.232192 ], [ 136.067149, -12.253106 ], [ 136.062836, -12.264581 ], [ 136.053477, -12.26922 ], [ 136.043956, -12.270929 ], [ 136.039806, -12.273858 ], [ 136.038259, -12.282322 ], [ 136.026134, -12.311456 ], [ 135.990245, -12.353692 ], [ 135.985118, -12.36297 ], [ 135.985688, -12.372735 ], [ 135.988048, -12.385186 ], [ 135.993337, -12.393243 ], [ 136.001801, -12.390313 ], [ 136.013845, -12.383396 ], [ 136.016287, -12.392185 ], [ 136.012462, -12.413832 ], [ 136.016612, -12.435724 ], [ 136.023204, -12.455662 ], [ 136.033946, -12.465916 ], [ 136.050059, -12.458185 ], [ 136.054454, -12.448419 ], [ 136.054942, -12.438409 ], [ 136.058116, -12.430597 ], [ 136.070811, -12.427504 ], [ 136.076427, -12.429376 ], [ 136.079356, -12.434177 ], [ 136.081391, -12.439711 ], [ 136.084483, -12.444513 ], [ 136.090831, -12.447849 ], [ 136.096202, -12.446059 ], [ 136.101817, -12.442966 ], [ 136.141368, -12.435154 ], [ 136.149099, -12.434991 ], [ 136.157074, -12.440525 ], [ 136.169281, -12.45794 ], [ 136.173595, -12.461602 ], [ 136.196056, -12.459893 ], [ 136.217296, -12.455255 ], [ 136.252696, -12.441095 ], [ 136.284516, -12.415785 ], [ 136.304535, -12.383559 ], [ 136.333995, -12.30462 ], [ 136.363943, -12.256443 ], [ 136.368175, -12.239435 ], [ 136.363048, -12.222914 ], [ 136.349783, -12.21087 ], [ 136.332205, -12.203546 ], [ 136.313487, -12.201593 ], [ 136.300629, -12.20436 ], [ 136.277397, -12.20823 ], [ 136.259416, -12.208984 ], [ 136.234943, -12.21116 ], [ 136.225108, -12.191827 ], [ 136.214692, -12.187921 ], [ 136.188243, -12.192071 ], [ 136.180024, -12.187758 ], [ 136.177013, -12.170831 ], [ 136.182384, -12.16253 ], [ 136.195567, -12.158298 ], [ 136.22462, -12.153741 ], [ 136.230968, -12.132094 ], [ 136.283539, -12.065688 ], [ 136.300466, -12.050714 ], [ 136.320323, -12.049005 ], [ 136.3296, -12.051365 ], [ 136.336274, -12.050063 ], [ 136.361827, -12.023533 ], [ 136.385427, -12.005304 ], [ 136.418224, -11.973565 ], [ 136.429454, -11.965265 ], [ 136.44044, -11.962009 ], [ 136.450713, -11.942333 ], [ 136.465066, -11.945812 ], [ 136.480858, -11.950691 ], [ 136.51231, -11.940792 ], [ 136.525815, -11.921821 ], [ 136.552983, -11.916128 ], [ 136.565832, -11.90908 ], [ 136.564322, -11.89156 ], [ 136.572215, -11.896443 ], [ 136.581565, -11.906925 ], [ 136.578032, -11.91675 ], [ 136.563052, -11.927309 ], [ 136.548081, -11.939272 ], [ 136.528093, -11.949151 ], [ 136.515941, -11.951993 ], [ 136.498791, -11.958348 ], [ 136.480169, -11.958393 ], [ 136.469447, -11.966811 ], [ 136.470251, -11.986425 ], [ 136.477489, -12.002518 ], [ 136.489683, -12.006687 ], [ 136.504655, -11.993334 ], [ 136.519662, -11.987685 ], [ 136.533289, -11.993246 ], [ 136.548512, -12.038702 ], [ 136.560134, -12.079251 ], [ 136.586626, -12.083353 ], [ 136.58174, -12.112055 ], [ 136.581889, -12.14843 ], [ 136.590575, -12.174278 ], [ 136.612071, -12.19256 ], [ 136.621918, -12.208429 ], [ 136.649913, -12.236261 ], [ 136.658702, -12.256117 ], [ 136.663585, -12.263604 ], [ 136.690603, -12.28281 ], [ 136.719086, -12.281345 ], [ 136.745372, -12.265802 ], [ 136.76588, -12.242608 ], [ 136.759532, -12.233168 ], [ 136.752778, -12.225763 ], [ 136.728169, -12.219878 ], [ 136.711651, -12.20666 ], [ 136.700846, -12.19062 ], [ 136.67944, -12.204699 ], [ 136.685793, -12.184385 ], [ 136.713704, -12.185669 ], [ 136.729389, -12.173012 ], [ 136.760916, -12.164483 ], [ 136.779959, -12.172052 ], [ 136.807465, -12.194757 ], [ 136.824776, -12.213857 ], [ 136.849114, -12.214442 ], [ 136.87638, -12.223414 ], [ 136.906667, -12.261753 ], [ 136.926911, -12.288968 ], [ 136.934127, -12.322355 ], [ 136.927816, -12.348983 ], [ 136.94934, -12.355869 ], [ 136.969981, -12.34588 ], [ 136.983653, -12.345473 ], [ 136.971446, -12.365981 ], [ 136.963634, -12.372491 ], [ 136.956228, -12.374933 ], [ 136.947927, -12.376397 ], [ 136.927958, -12.376974 ], [ 136.908677, -12.388972 ], [ 136.861638, -12.434679 ], [ 136.793987, -12.516123 ], [ 136.783323, -12.534359 ], [ 136.771177, -12.541406 ], [ 136.76824, -12.524629 ], [ 136.78004, -12.507908 ], [ 136.800629, -12.48268 ], [ 136.802501, -12.477716 ], [ 136.805186, -12.467543 ], [ 136.805512, -12.456476 ], [ 136.800629, -12.447931 ], [ 136.789806, -12.445489 ], [ 136.781423, -12.450616 ], [ 136.774669, -12.45794 ], [ 136.769705, -12.461602 ], [ 136.740245, -12.475763 ], [ 136.738048, -12.507989 ], [ 136.744679, -12.547828 ], [ 136.761285, -12.574338 ], [ 136.74171, -12.5735 ], [ 136.731781, -12.578302 ], [ 136.701182, -12.616143 ], [ 136.679222, -12.671292 ], [ 136.69726, -12.698528 ], [ 136.690138, -12.713272 ], [ 136.670095, -12.705173 ], [ 136.627696, -12.702407 ], [ 136.608409, -12.714939 ], [ 136.601899, -12.733657 ], [ 136.60906, -12.750909 ], [ 136.621763, -12.764006 ], [ 136.622569, -12.786554 ], [ 136.62086, -12.796482 ], [ 136.62322, -12.807061 ], [ 136.621918, -12.818536 ], [ 136.610688, -12.830336 ], [ 136.597423, -12.831231 ], [ 136.586274, -12.823012 ], [ 136.581554, -12.808282 ], [ 136.579356, -12.792576 ], [ 136.569591, -12.765232 ], [ 136.567231, -12.753351 ], [ 136.565115, -12.748224 ], [ 136.559255, -12.745212 ], [ 136.551443, -12.743829 ], [ 136.543468, -12.743422 ], [ 136.533025, -12.748313 ], [ 136.527301, -12.754734 ], [ 136.525715, -12.76917 ], [ 136.532326, -12.779571 ], [ 136.534023, -12.793199 ], [ 136.532428, -12.804426 ], [ 136.511902, -12.805297 ], [ 136.496349, -12.780369 ], [ 136.479259, -12.766697 ], [ 136.47169, -12.773858 ], [ 136.473806, -12.79225 ], [ 136.482758, -12.825779 ], [ 136.484874, -12.842462 ], [ 136.489757, -12.850763 ], [ 136.526378, -12.880548 ], [ 136.545665, -12.87184 ], [ 136.546723, -12.891209 ], [ 136.545421, -12.912856 ], [ 136.55714, -12.911716 ], [ 136.567882, -12.911879 ], [ 136.612908, -12.938678 ], [ 136.636944, -12.954941 ], [ 136.640629, -12.975951 ], [ 136.657494, -12.995739 ], [ 136.656749, -13.006606 ], [ 136.652029, -13.013442 ], [ 136.641856, -13.008722 ], [ 136.632335, -13.000584 ], [ 136.629405, -12.996677 ], [ 136.621267, -12.98919 ], [ 136.620128, -12.982843 ], [ 136.616873, -12.979913 ], [ 136.602061, -12.982354 ], [ 136.581716, -13.014068 ], [ 136.565281, -13.011729 ], [ 136.564335, -12.979729 ], [ 136.55524, -12.963762 ], [ 136.54005, -12.961847 ], [ 136.539561, -12.964125 ], [ 136.533214, -12.974298 ], [ 136.532563, -12.976251 ], [ 136.526866, -12.975681 ], [ 136.518077, -12.968357 ], [ 136.512706, -12.968845 ], [ 136.496755, -12.975193 ], [ 136.493337, -12.980239 ], [ 136.492198, -12.992934 ], [ 136.493988, -13.000258 ], [ 136.498302, -13.007989 ], [ 136.503917, -13.014093 ], [ 136.509288, -13.016534 ], [ 136.522146, -13.01865 ], [ 136.523692, -13.023858 ], [ 136.522472, -13.030532 ], [ 136.534223, -13.050251 ], [ 136.567231, -13.058201 ], [ 136.539352, -13.102242 ], [ 136.531334, -13.155083 ], [ 136.513212, -13.143144 ], [ 136.492688, -13.148819 ], [ 136.481245, -13.166464 ], [ 136.478038, -13.19199 ], [ 136.478038, -13.227634 ], [ 136.472341, -13.242364 ], [ 136.457367, -13.250584 ], [ 136.457693, -13.240899 ], [ 136.456065, -13.232599 ], [ 136.450531, -13.216404 ], [ 136.443858, -13.216404 ], [ 136.434744, -13.227716 ], [ 136.399247, -13.242004 ], [ 136.38852, -13.264255 ], [ 136.367524, -13.297621 ], [ 136.353309, -13.310276 ], [ 136.342625, -13.321538 ], [ 136.331087, -13.319979 ], [ 136.332716, -13.310354 ], [ 136.322001, -13.307989 ], [ 136.321154, -13.295969 ], [ 136.344737, -13.281345 ], [ 136.341692, -13.270251 ], [ 136.335078, -13.259059 ], [ 136.337524, -13.248636 ], [ 136.351521, -13.248587 ], [ 136.365532, -13.254945 ], [ 136.381967, -13.245276 ], [ 136.388194, -13.225763 ], [ 136.381901, -13.213232 ], [ 136.367036, -13.19487 ], [ 136.371069, -13.165236 ], [ 136.364442, -13.150851 ], [ 136.368175, -13.095636 ], [ 136.371593, -13.065362 ], [ 136.365489, -13.055108 ], [ 136.343553, -13.046855 ], [ 136.332856, -13.046882 ], [ 136.318696, -13.063084 ], [ 136.310232, -13.076104 ], [ 136.304194, -13.090993 ], [ 136.305886, -13.1062 ], [ 136.320974, -13.12127 ], [ 136.311733, -13.138208 ], [ 136.311775, -13.154221 ], [ 136.30836, -13.162774 ], [ 136.29005, -13.165704 ], [ 136.273448, -13.160414 ], [ 136.260997, -13.129327 ], [ 136.249278, -13.129653 ], [ 136.237559, -13.138767 ], [ 136.232188, -13.150567 ], [ 136.236501, -13.166681 ], [ 136.243907, -13.18255 ], [ 136.245372, -13.197035 ], [ 136.232188, -13.208917 ], [ 136.224864, -13.203546 ], [ 136.217784, -13.204685 ], [ 136.212657, -13.211521 ], [ 136.211111, -13.222589 ], [ 136.211111, -13.216404 ], [ 136.207042, -13.23211 ], [ 136.193858, -13.235284 ], [ 136.177419, -13.23561 ], [ 136.158618, -13.262878 ], [ 136.147854, -13.238858 ], [ 136.138734, -13.206813 ], [ 136.156993, -13.172459 ], [ 136.156505, -13.146905 ], [ 136.147634, -13.122247 ], [ 136.136567, -13.125177 ], [ 136.10399, -13.158805 ], [ 136.085855, -13.199746 ], [ 136.085867, -13.230227 ], [ 136.076779, -13.231054 ], [ 136.063975, -13.222752 ], [ 136.05836, -13.224867 ], [ 136.053477, -13.230076 ], [ 136.052419, -13.245294 ], [ 136.059093, -13.292657 ], [ 136.053477, -13.311944 ], [ 136.046641, -13.311944 ], [ 136.039806, -13.287042 ], [ 136.036957, -13.260024 ], [ 136.030447, -13.236586 ], [ 136.008285, -13.215505 ], [ 135.991417, -13.219386 ], [ 135.977545, -13.231961 ], [ 135.967707, -13.275442 ], [ 135.956811, -13.288021 ], [ 135.951915, -13.263442 ], [ 135.942839, -13.256149 ], [ 135.923995, -13.266797 ], [ 135.911111, -13.284198 ], [ 135.907169, -13.302557 ], [ 135.883365, -13.325764 ], [ 135.883429, -13.367306 ], [ 135.912852, -13.374119 ], [ 135.920897, -13.377495 ], [ 135.925386, -13.386248 ], [ 135.92627, -13.398496 ], [ 135.916362, -13.403733 ], [ 135.922647, -13.415117 ], [ 135.936371, -13.416762 ], [ 135.959483, -13.415134 ], [ 135.96461, -13.415134 ], [ 135.969435, -13.425652 ], [ 135.967623, -13.436148 ], [ 135.96461, -13.449151 ], [ 135.945811, -13.446466 ], [ 135.936778, -13.450942 ], [ 135.919877, -13.464104 ], [ 135.899433, -13.437799 ], [ 135.880528, -13.430094 ], [ 135.860657, -13.437843 ], [ 135.854747, -13.455987 ], [ 135.861013, -13.480157 ], [ 135.861013, -13.50449 ], [ 135.869395, -13.539809 ], [ 135.868419, -13.551528 ], [ 135.864024, -13.557387 ], [ 135.857432, -13.561619 ], [ 135.850841, -13.567478 ], [ 135.847423, -13.578302 ], [ 135.844837, -13.600186 ], [ 135.852806, -13.615638 ], [ 135.87074, -13.653306 ], [ 135.884686, -13.666812 ], [ 135.91627, -13.653985 ], [ 135.918468, -13.658461 ], [ 135.92213, -13.669854 ], [ 135.923106, -13.675063 ], [ 135.893728, -13.687921 ], [ 135.886729, -13.713637 ], [ 135.901378, -13.738865 ], [ 135.936778, -13.750177 ], [ 135.9699, -13.742283 ], [ 135.996593, -13.722589 ], [ 136.03297, -13.675063 ], [ 136.036143, -13.666192 ], [ 136.035899, -13.659845 ], [ 136.037364, -13.654392 ], [ 136.046641, -13.647719 ], [ 136.055349, -13.645929 ], [ 136.063487, -13.647556 ], [ 136.070323, -13.650974 ], [ 136.074474, -13.653985 ], [ 136.077891, -13.662693 ], [ 136.071788, -13.671157 ], [ 136.053477, -13.688165 ], [ 136.047211, -13.701267 ], [ 136.03297, -13.750177 ], [ 136.004893, -13.798028 ], [ 136.012706, -13.808201 ], [ 136.012706, -13.821954 ], [ 136.004893, -13.846368 ], [ 136.00172, -13.851007 ], [ 135.997244, -13.854913 ], [ 135.993012, -13.86061 ], [ 135.991384, -13.870701 ], [ 135.992442, -13.89422 ], [ 135.991384, -13.901056 ], [ 135.96461, -13.935805 ], [ 135.923106, -13.959649 ], [ 135.903331, -14.135837 ], [ 135.909434, -14.195245 ], [ 135.889903, -14.189548 ], [ 135.86964, -14.192071 ], [ 135.85377, -14.20086 ], [ 135.847423, -14.212986 ], [ 135.84197, -14.219171 ], [ 135.818533, -14.223565 ], [ 135.813243, -14.226658 ], [ 135.808604, -14.226658 ], [ 135.789317, -14.240655 ], [ 135.786469, -14.243585 ], [ 135.759125, -14.265395 ], [ 135.734141, -14.29811 ], [ 135.675304, -14.406183 ], [ 135.667741, -14.427264 ], [ 135.650238, -14.436482 ], [ 135.624685, -14.431573 ], [ 135.609386, -14.452569 ], [ 135.554602, -14.545693 ], [ 135.532258, -14.581084 ], [ 135.517866, -14.616486 ], [ 135.522634, -14.651544 ], [ 135.503429, -14.662693 ], [ 135.47934, -14.670831 ], [ 135.453787, -14.685642 ], [ 135.44337, -14.699884 ], [ 135.440115, -14.712172 ], [ 135.434093, -14.720636 ], [ 135.416026, -14.722833 ], [ 135.404063, -14.719008 ], [ 135.39088, -14.713149 ], [ 135.378266, -14.712335 ], [ 135.368175, -14.722833 ], [ 135.384044, -14.725681 ], [ 135.391287, -14.739923 ], [ 135.395518, -14.778009 ], [ 135.403982, -14.813897 ], [ 135.447765, -14.916274 ], [ 135.469574, -14.948012 ], [ 135.551117, -15.019138 ], [ 135.581065, -15.035903 ], [ 135.615245, -15.046157 ], [ 135.625743, -15.045505 ], [ 135.645681, -15.039972 ], [ 135.65268, -15.042413 ], [ 135.66977, -15.066095 ], [ 135.69752, -15.086847 ], [ 135.708995, -15.097589 ], [ 135.717621, -15.114435 ], [ 135.736339, -15.109552 ], [ 135.759044, -15.115411 ], [ 135.778494, -15.126723 ], [ 135.786469, -15.137953 ], [ 135.796153, -15.146661 ], [ 135.861013, -15.175958 ], [ 135.88795, -15.199802 ], [ 135.918224, -15.233982 ], [ 135.951671, -15.264418 ], [ 135.988292, -15.277765 ], [ 136.003103, -15.281345 ], [ 136.043468, -15.30169 ], [ 136.060313, -15.313084 ], [ 136.090668, -15.339939 ], [ 136.101248, -15.347263 ], [ 136.112315, -15.351658 ], [ 136.136404, -15.357843 ], [ 136.165782, -15.380141 ], [ 136.206065, -15.396742 ], [ 136.22462, -15.408624 ], [ 136.237071, -15.419203 ], [ 136.240082, -15.424086 ], [ 136.257335, -15.47088 ], [ 136.267914, -15.545017 ], [ 136.273204, -15.559503 ], [ 136.284434, -15.570977 ], [ 136.330821, -15.604425 ], [ 136.348399, -15.613865 ], [ 136.395844, -15.617283 ], [ 136.416515, -15.621515 ], [ 136.468028, -15.674249 ], [ 136.493826, -15.690037 ], [ 136.509044, -15.704767 ], [ 136.528575, -15.719008 ], [ 136.553722, -15.724054 ], [ 136.562673, -15.72031 ], [ 136.57252, -15.713637 ], [ 136.583181, -15.70908 ], [ 136.594737, -15.71087 ], [ 136.598481, -15.718032 ], [ 136.606212, -15.744806 ], [ 136.612071, -15.754653 ], [ 136.658214, -15.787774 ], [ 136.670421, -15.799086 ], [ 136.704438, -15.847345 ], [ 136.715099, -15.854262 ], [ 136.722911, -15.862237 ], [ 136.717947, -15.880141 ], [ 136.708751, -15.900567 ], [ 136.7046, -15.915216 ], [ 136.715587, -15.935968 ], [ 136.734141, -15.938572 ], [ 136.751964, -15.928481 ], [ 136.759776, -15.912042 ], [ 136.767914, -15.900811 ], [ 136.786957, -15.900486 ], [ 136.828136, -15.908949 ], [ 136.859711, -15.907485 ], [ 136.86964, -15.908949 ], [ 136.879405, -15.914727 ], [ 136.899587, -15.93255 ], [ 136.906505, -15.936212 ], [ 136.925548, -15.934666 ], [ 136.925792, -15.928643 ], [ 136.922211, -15.916111 ], [ 136.929861, -15.895278 ], [ 136.942638, -15.885512 ], [ 136.983165, -15.865899 ], [ 136.991873, -15.86419 ], [ 137.008067, -15.89186 ], [ 137.045909, -15.922296 ], [ 137.090343, -15.94671 ], [ 137.134776, -15.959893 ], [ 137.153656, -15.974054 ], [ 137.160411, -15.977227 ], [ 137.179454, -15.978774 ], [ 137.188975, -15.981134 ], [ 137.198009, -15.984633 ], [ 137.250255, -16.020603 ], [ 137.259532, -16.028741 ], [ 137.264985, -16.040785 ], [ 137.291759, -16.071873 ], [ 137.361176, -16.122166 ], [ 137.379893, -16.128676 ], [ 137.402599, -16.128106 ], [ 137.413097, -16.130792 ], [ 137.417735, -16.138604 ], [ 137.421723, -16.149184 ], [ 137.431407, -16.150811 ], [ 137.442393, -16.149021 ], [ 137.451182, -16.149102 ], [ 137.475108, -16.171157 ], [ 137.485362, -16.176446 ], [ 137.497406, -16.177423 ], [ 137.519216, -16.171482 ], [ 137.53004, -16.16961 ], [ 137.550466, -16.17197 ], [ 137.660899, -16.211358 ], [ 137.689789, -16.231215 ], [ 137.730235, -16.243829 ], [ 137.746104, -16.25213 ], [ 137.780121, -16.302992 ], [ 137.784679, -16.318455 ], [ 137.844737, -16.400567 ], [ 137.849132, -16.412042 ], [ 137.866873, -16.437107 ], [ 137.912852, -16.477634 ], [ 137.949962, -16.510512 ], [ 138.000173, -16.541599 ], [ 138.000187, -16.554441 ], [ 138.000187, -16.849566 ], [ 138.000187, -17.144793 ], [ 138.000187, -17.439969 ], [ 138.000187, -17.735145 ], [ 138.000187, -18.030269 ], [ 138.000187, -18.325496 ], [ 138.000187, -18.620724 ], [ 138.000187, -18.915848 ], [ 138.000187, -19.210972 ], [ 138.000187, -19.506199 ], [ 138.000187, -19.801427 ], [ 138.000187, -20.096551 ], [ 138.000187, -20.391675 ], [ 138.000187, -20.686799 ], [ 138.000187, -20.981975 ], [ 138.000187, -21.277151 ], [ 138.000187, -21.572378 ], [ 138.000187, -21.867502 ], [ 138.000187, -22.162678 ], [ 138.000187, -22.457802 ], [ 138.000187, -22.752926 ], [ 138.000187, -23.048154 ], [ 138.000187, -23.343381 ], [ 138.000187, -23.638505 ], [ 138.000187, -23.933629 ], [ 138.000187, -24.228857 ], [ 138.000187, -24.524084 ], [ 138.000187, -24.819208 ], [ 138.000187, -25.114332 ], [ 138.000187, -25.40956 ], [ 138.000187, -25.704787 ], [ 138.000187, -25.999911 ], [ 137.718912, -25.999911 ], [ 137.437689, -25.999911 ], [ 137.156414, -25.999911 ], [ 136.875191, -25.999911 ], [ 136.593864, -25.999911 ], [ 136.312693, -25.999911 ], [ 136.031418, -25.999911 ], [ 135.750195, -25.999911 ], [ 135.46892, -25.999911 ], [ 135.187697, -25.999911 ], [ 134.906422, -25.999911 ], [ 134.625199, -25.999911 ], [ 134.343924, -25.999911 ], [ 134.062649, -25.999911 ], [ 133.781426, -25.999911 ], [ 133.500203, -25.999911 ], [ 133.218928, -25.999911 ], [ 132.937653, -25.999911 ], [ 132.892912, -25.999911 ], [ 132.65643, -25.999911 ], [ 132.375207, -25.999911 ], [ 132.093932, -25.999911 ], [ 131.812658, -25.999911 ], [ 131.531434, -25.999911 ], [ 131.250211, -25.999911 ], [ 130.968936, -25.999911 ], [ 130.687662, -25.999911 ], [ 130.406438, -25.999911 ], [ 130.125215, -25.999911 ], [ 129.84394, -25.999911 ], [ 129.562666, -25.999911 ], [ 129.281442, -25.999911 ], [ 129.000116, -25.999911 ], [ 129.000116, -25.652181 ], [ 129.000116, -25.304347 ], [ 129.000116, -24.956513 ], [ 129.000116, -24.608782 ], [ 129.000116, -24.261051 ], [ 129.000116, -23.913217 ], [ 129.000116, -23.565435 ], [ 129.000116, -23.217652 ], [ 129.000116, -22.869922 ], [ 129.000116, -22.522139 ], [ 129.000116, -22.174305 ], [ 129.000116, -21.826574 ], [ 129.000116, -21.478792 ], [ 129.000116, -21.13101 ], [ 129.000116, -20.783176 ], [ 129.000116, -20.435445 ], [ 129.000116, -20.087714 ], [ 129.000116, -19.73988 ], [ 129.000116, -19.392046 ], [ 129.000116, -19.044315 ], [ 129.000116, -18.696585 ], [ 129.000116, -18.348751 ], [ 129.000116, -18.000916 ], [ 129.000116, -17.653186 ], [ 129.000116, -17.305455 ], [ 129.000116, -16.957621 ], [ 129.000116, -16.609839 ], [ 129.000116, -16.262056 ], [ 129.000116, -15.914325 ], [ 129.000116, -15.566595 ], [ 129.000116, -15.218864 ], [ 129.000116, -14.87103 ], [ 129.000116, -14.868151 ] ] ], [ [ [ 136.670421, -15.663181 ], [ 136.675955, -15.678969 ], [ 136.690115, -15.686944 ], [ 136.704763, -15.693048 ], [ 136.711925, -15.703546 ], [ 136.707693, -15.719659 ], [ 136.695486, -15.739923 ], [ 136.663585, -15.778578 ], [ 136.656749, -15.771173 ], [ 136.642914, -15.762384 ], [ 136.629731, -15.749119 ], [ 136.61964, -15.732599 ], [ 136.615733, -15.714044 ], [ 136.621837, -15.69256 ], [ 136.636567, -15.682306 ], [ 136.654552, -15.675226 ], [ 136.670421, -15.663181 ] ] ], [ [ [ 136.800629, -15.642022 ], [ 136.815766, -15.652927 ], [ 136.830251, -15.668227 ], [ 136.834972, -15.682387 ], [ 136.8213, -15.689874 ], [ 136.81186, -15.687107 ], [ 136.803071, -15.672133 ], [ 136.793793, -15.669366 ], [ 136.78004, -15.672947 ], [ 136.778575, -15.679783 ], [ 136.788585, -15.702569 ], [ 136.791759, -15.705987 ], [ 136.7942, -15.710056 ], [ 136.793793, -15.717055 ], [ 136.790782, -15.722263 ], [ 136.78533, -15.725844 ], [ 136.773448, -15.731378 ], [ 136.752452, -15.745782 ], [ 136.741466, -15.749444 ], [ 136.731781, -15.744399 ], [ 136.734141, -15.720798 ], [ 136.740896, -15.698826 ], [ 136.742931, -15.675877 ], [ 136.731781, -15.648858 ], [ 136.748057, -15.646254 ], [ 136.783539, -15.648696 ], [ 136.800629, -15.642022 ] ] ], [ [ [ 137.077891, -15.751235 ], [ 137.079509, -15.758744 ], [ 137.087285, -15.762779 ], [ 137.094412, -15.766046 ], [ 137.106379, -15.774224 ], [ 137.100182, -15.803421 ], [ 137.090403, -15.821781 ], [ 137.072894, -15.846961 ], [ 137.043909, -15.834202 ], [ 137.042166, -15.817804 ], [ 137.038585, -15.80641 ], [ 137.033376, -15.796563 ], [ 137.023204, -15.79225 ], [ 137.007498, -15.791192 ], [ 137.000336, -15.787042 ], [ 136.98585, -15.750258 ], [ 136.984141, -15.742608 ], [ 136.985118, -15.720636 ], [ 136.981619, -15.712009 ], [ 136.973318, -15.711114 ], [ 136.964122, -15.712579 ], [ 136.957774, -15.71087 ], [ 136.951508, -15.71087 ], [ 136.948179, -15.729424 ], [ 136.945352, -15.728755 ], [ 136.9397, -15.728096 ], [ 136.934725, -15.721324 ], [ 136.938324, -15.699884 ], [ 136.938324, -15.682875 ], [ 136.943044, -15.667657 ], [ 136.951508, -15.655694 ], [ 136.963969, -15.640429 ], [ 136.975271, -15.65602 ], [ 136.983165, -15.664321 ], [ 136.988766, -15.660717 ], [ 136.981575, -15.634258 ], [ 136.992138, -15.630827 ], [ 136.999813, -15.615178 ], [ 136.994756, -15.592776 ], [ 137.004731, -15.593683 ], [ 137.015961, -15.593357 ], [ 137.023692, -15.602634 ], [ 137.027381, -15.627982 ], [ 137.047176, -15.638769 ], [ 137.057698, -15.62922 ], [ 137.065447, -15.628509 ], [ 137.066954, -15.646834 ], [ 137.083193, -15.652196 ], [ 137.081966, -15.686818 ], [ 137.081466, -15.726175 ], [ 137.082245, -15.741772 ], [ 137.077891, -15.751235 ] ] ], [ [ [ 136.615733, -15.538995 ], [ 136.602306, -15.563653 ], [ 136.600352, -15.611586 ], [ 136.587901, -15.635186 ], [ 136.576671, -15.631117 ], [ 136.55836, -15.633884 ], [ 136.546886, -15.627699 ], [ 136.541026, -15.635186 ], [ 136.534923, -15.63893 ], [ 136.519542, -15.642022 ], [ 136.514171, -15.639744 ], [ 136.509288, -15.636814 ], [ 136.498546, -15.627699 ], [ 136.510265, -15.621189 ], [ 136.512218, -15.609063 ], [ 136.507172, -15.596287 ], [ 136.498546, -15.587498 ], [ 136.515636, -15.574314 ], [ 136.521495, -15.567804 ], [ 136.526378, -15.559503 ], [ 136.526622, -15.548435 ], [ 136.522716, -15.539727 ], [ 136.524913, -15.534275 ], [ 136.543468, -15.532159 ], [ 136.565115, -15.526056 ], [ 136.585216, -15.516371 ], [ 136.602794, -15.516371 ], [ 136.615733, -15.538995 ] ] ], [ [ [ 136.895681, -15.587498 ], [ 136.883149, -15.590916 ], [ 136.873871, -15.597426 ], [ 136.870372, -15.60768 ], [ 136.875255, -15.621515 ], [ 136.86671, -15.623956 ], [ 136.861339, -15.626072 ], [ 136.848481, -15.635186 ], [ 136.847911, -15.630466 ], [ 136.846446, -15.627618 ], [ 136.844249, -15.625258 ], [ 136.841645, -15.621515 ], [ 136.847911, -15.619887 ], [ 136.848155, -15.61712 ], [ 136.841645, -15.608005 ], [ 136.83725, -15.599298 ], [ 136.840099, -15.594903 ], [ 136.845388, -15.591729 ], [ 136.848481, -15.587498 ], [ 136.849864, -15.583591 ], [ 136.854828, -15.575453 ], [ 136.855968, -15.570001 ], [ 136.853526, -15.565362 ], [ 136.843598, -15.556573 ], [ 136.841645, -15.553318 ], [ 136.847423, -15.535821 ], [ 136.857432, -15.520196 ], [ 136.869884, -15.50742 ], [ 136.883311, -15.498142 ], [ 136.874685, -15.522149 ], [ 136.877696, -15.544122 ], [ 136.895681, -15.587498 ] ] ], [ [ [ 135.766754, -14.86821 ], [ 135.764508, -14.890059 ], [ 135.762679, -14.900902 ], [ 135.746578, -14.897362 ], [ 135.727008, -14.895597 ], [ 135.705201, -14.913113 ], [ 135.692553, -14.908794 ], [ 135.687246, -14.902892 ], [ 135.698474, -14.895194 ], [ 135.703949, -14.887872 ], [ 135.715194, -14.880022 ], [ 135.720701, -14.867019 ], [ 135.719479, -14.860127 ], [ 135.710507, -14.858752 ], [ 135.708061, -14.853041 ], [ 135.715198, -14.850873 ], [ 135.720088, -14.841026 ], [ 135.727829, -14.834527 ], [ 135.749223, -14.838466 ], [ 135.760635, -14.849889 ], [ 135.766754, -14.86821 ] ] ], [ [ [ 136.807465, -13.818536 ], [ 136.808116, -13.812921 ], [ 136.810313, -13.808282 ], [ 136.813975, -13.804457 ], [ 136.818126, -13.801365 ], [ 136.811697, -13.808852 ], [ 136.809093, -13.813409 ], [ 136.807465, -13.818536 ] ] ], [ [ [ 136.286876, -13.705824 ], [ 136.288259, -13.718845 ], [ 136.29005, -13.724542 ], [ 136.288585, -13.728611 ], [ 136.28004, -13.736505 ], [ 136.268728, -13.740492 ], [ 136.257986, -13.739435 ], [ 136.249522, -13.742283 ], [ 136.245128, -13.757582 ], [ 136.260427, -13.758071 ], [ 136.267589, -13.766534 ], [ 136.272227, -13.778904 ], [ 136.28004, -13.791762 ], [ 136.261404, -13.793552 ], [ 136.254161, -13.806085 ], [ 136.25115, -13.823663 ], [ 136.245128, -13.839532 ], [ 136.236095, -13.847263 ], [ 136.222667, -13.853204 ], [ 136.208507, -13.85589 ], [ 136.197439, -13.853204 ], [ 136.204845, -13.846368 ], [ 136.205577, -13.840265 ], [ 136.205577, -13.835382 ], [ 136.206798, -13.830743 ], [ 136.211111, -13.825942 ], [ 136.202322, -13.812921 ], [ 136.18629, -13.773126 ], [ 136.177013, -13.763849 ], [ 136.153494, -13.770685 ], [ 136.151134, -13.794041 ], [ 136.156505, -13.821222 ], [ 136.156505, -13.839532 ], [ 136.123057, -13.824884 ], [ 136.11671, -13.816664 ], [ 136.114757, -13.723565 ], [ 136.151622, -13.740899 ], [ 136.164887, -13.742364 ], [ 136.170177, -13.726658 ], [ 136.17335, -13.707127 ], [ 136.182384, -13.686456 ], [ 136.195323, -13.66961 ], [ 136.211111, -13.661391 ], [ 136.220225, -13.66253 ], [ 136.234223, -13.666436 ], [ 136.247081, -13.672052 ], [ 136.252696, -13.678481 ], [ 136.257986, -13.690037 ], [ 136.269786, -13.697198 ], [ 136.281505, -13.701755 ], [ 136.286876, -13.705824 ] ] ], [ [ [ 136.951508, -14.181573 ], [ 136.94752, -14.183852 ], [ 136.943126, -14.182387 ], [ 136.939626, -14.182387 ], [ 136.937266, -14.18906 ], [ 136.937755, -14.196222 ], [ 136.942882, -14.207208 ], [ 136.944102, -14.212986 ], [ 136.947765, -14.215509 ], [ 136.9546, -14.223891 ], [ 136.958832, -14.23268 ], [ 136.9546, -14.236749 ], [ 136.941254, -14.241957 ], [ 136.937999, -14.254002 ], [ 136.942149, -14.267755 ], [ 136.951508, -14.277765 ], [ 136.939464, -14.273858 ], [ 136.932953, -14.276544 ], [ 136.931977, -14.283298 ], [ 136.937266, -14.291436 ], [ 136.924571, -14.282403 ], [ 136.913585, -14.279962 ], [ 136.905772, -14.285252 ], [ 136.903087, -14.298923 ], [ 136.867849, -14.27988 ], [ 136.851573, -14.275567 ], [ 136.83546, -14.285252 ], [ 136.824474, -14.274102 ], [ 136.804942, -14.267836 ], [ 136.762869, -14.264825 ], [ 136.745616, -14.258071 ], [ 136.733084, -14.256117 ], [ 136.721934, -14.261 ], [ 136.680512, -14.285252 ], [ 136.639415, -14.280206 ], [ 136.460785, -14.216404 ], [ 136.455333, -14.213067 ], [ 136.437755, -14.198419 ], [ 136.426768, -14.195245 ], [ 136.416026, -14.196384 ], [ 136.380707, -14.206801 ], [ 136.357188, -14.225518 ], [ 136.341319, -14.230076 ], [ 136.337901, -14.231541 ], [ 136.329845, -14.233087 ], [ 136.324067, -14.229587 ], [ 136.32781, -14.216404 ], [ 136.335216, -14.208754 ], [ 136.358165, -14.196547 ], [ 136.368175, -14.18906 ], [ 136.398285, -14.176039 ], [ 136.411306, -14.165785 ], [ 136.421397, -14.139337 ], [ 136.430837, -14.129571 ], [ 136.437348, -14.120375 ], [ 136.433604, -14.109959 ], [ 136.422374, -14.088556 ], [ 136.415538, -14.057306 ], [ 136.409679, -13.997247 ], [ 136.410981, -13.964939 ], [ 136.42628, -13.908461 ], [ 136.430186, -13.87713 ], [ 136.425059, -13.864516 ], [ 136.41505, -13.848891 ], [ 136.407237, -13.832696 ], [ 136.409679, -13.818536 ], [ 136.424571, -13.810317 ], [ 136.439952, -13.816827 ], [ 136.464203, -13.839532 ], [ 136.472179, -13.833429 ], [ 136.49776, -13.834098 ], [ 136.512169, -13.834082 ], [ 136.525669, -13.818324 ], [ 136.519542, -13.804457 ], [ 136.530145, -13.785956 ], [ 136.536143, -13.790297 ], [ 136.548106, -13.810724 ], [ 136.561046, -13.819757 ], [ 136.574067, -13.798028 ], [ 136.579112, -13.802911 ], [ 136.594737, -13.81227 ], [ 136.594737, -13.784356 ], [ 136.608084, -13.79225 ], [ 136.622732, -13.787774 ], [ 136.628591, -13.7763 ], [ 136.615733, -13.763849 ], [ 136.608409, -13.771254 ], [ 136.603038, -13.754327 ], [ 136.600759, -13.736912 ], [ 136.593516, -13.724705 ], [ 136.574067, -13.723565 ], [ 136.58074, -13.713474 ], [ 136.58253, -13.70436 ], [ 136.578298, -13.697931 ], [ 136.567231, -13.695489 ], [ 136.572276, -13.686212 ], [ 136.580089, -13.681899 ], [ 136.590099, -13.681085 ], [ 136.602061, -13.681899 ], [ 136.615571, -13.684747 ], [ 136.618419, -13.688735 ], [ 136.616466, -13.692804 ], [ 136.615733, -13.695489 ], [ 136.61671, -13.699802 ], [ 136.614919, -13.711847 ], [ 136.615733, -13.715997 ], [ 136.620942, -13.717706 ], [ 136.62615, -13.715102 ], [ 136.629649, -13.711358 ], [ 136.629405, -13.709242 ], [ 136.634044, -13.705987 ], [ 136.637869, -13.699802 ], [ 136.644216, -13.696466 ], [ 136.656749, -13.702407 ], [ 136.67449, -13.6749 ], [ 136.677094, -13.664809 ], [ 136.681814, -13.657403 ], [ 136.706554, -13.655938 ], [ 136.718272, -13.647719 ], [ 136.725352, -13.664321 ], [ 136.724132, -13.687188 ], [ 136.714122, -13.707289 ], [ 136.684337, -13.720473 ], [ 136.678071, -13.731134 ], [ 136.676524, -13.743748 ], [ 136.680512, -13.754002 ], [ 136.691742, -13.761651 ], [ 136.70338, -13.763604 ], [ 136.714854, -13.763116 ], [ 136.725597, -13.763849 ], [ 136.718923, -13.770685 ], [ 136.7046, -13.791762 ], [ 136.712657, -13.806817 ], [ 136.714854, -13.818617 ], [ 136.718516, -13.829034 ], [ 136.731781, -13.839532 ], [ 136.744965, -13.844171 ], [ 136.797211, -13.853204 ], [ 136.81422, -13.849705 ], [ 136.82838, -13.84002 ], [ 136.838064, -13.82586 ], [ 136.841645, -13.80877 ], [ 136.839366, -13.801039 ], [ 136.833669, -13.797621 ], [ 136.82602, -13.797947 ], [ 136.819184, -13.800226 ], [ 136.824962, -13.794366 ], [ 136.827159, -13.791192 ], [ 136.841645, -13.750177 ], [ 136.856212, -13.75742 ], [ 136.886729, -13.753595 ], [ 136.903087, -13.757582 ], [ 136.908865, -13.764337 ], [ 136.91684, -13.777927 ], [ 136.92335, -13.793145 ], [ 136.924327, -13.805352 ], [ 136.915701, -13.817315 ], [ 136.885753, -13.845798 ], [ 136.875255, -13.86004 ], [ 136.855968, -13.915216 ], [ 136.822765, -13.905206 ], [ 136.791352, -13.917739 ], [ 136.768321, -13.944594 ], [ 136.759776, -13.977309 ], [ 136.763031, -13.99684 ], [ 136.770763, -14.004978 ], [ 136.781586, -14.009373 ], [ 136.793793, -14.017755 ], [ 136.797211, -14.018731 ], [ 136.805675, -14.023696 ], [ 136.810802, -14.029392 ], [ 136.804047, -14.031915 ], [ 136.794932, -14.033136 ], [ 136.787852, -14.036798 ], [ 136.78297, -14.043064 ], [ 136.780284, -14.051853 ], [ 136.764903, -14.045505 ], [ 136.754405, -14.050958 ], [ 136.749685, -14.063735 ], [ 136.752289, -14.079197 ], [ 136.741547, -14.06699 ], [ 136.729503, -14.0617 ], [ 136.716807, -14.063653 ], [ 136.7046, -14.072931 ], [ 136.709809, -14.085056 ], [ 136.709239, -14.099298 ], [ 136.7046, -14.126886 ], [ 136.716075, -14.165948 ], [ 136.718272, -14.178399 ], [ 136.723399, -14.185479 ], [ 136.736339, -14.189142 ], [ 136.752126, -14.190199 ], [ 136.78061, -14.187188 ], [ 136.78419, -14.186212 ], [ 136.782237, -14.180597 ], [ 136.780284, -14.164809 ], [ 136.789236, -14.149509 ], [ 136.810557, -14.159112 ], [ 136.871837, -14.20794 ], [ 136.880707, -14.208591 ], [ 136.892589, -14.198907 ], [ 136.901215, -14.188084 ], [ 136.908376, -14.176935 ], [ 136.913585, -14.163832 ], [ 136.916759, -14.147393 ], [ 136.924327, -14.147393 ], [ 136.934906, -14.155206 ], [ 136.948904, -14.154474 ], [ 136.964122, -14.149998 ], [ 136.978852, -14.147393 ], [ 136.969574, -14.155206 ], [ 136.961925, -14.164972 ], [ 136.951508, -14.181573 ] ] ], [ [ [ 136.135916, -13.434828 ], [ 136.135427, -13.407973 ], [ 136.122337, -13.393388 ], [ 136.118988, -13.3742 ], [ 136.094981, -13.360447 ], [ 136.117849, -13.362237 ], [ 136.134025, -13.386395 ], [ 136.148407, -13.389896 ], [ 136.163341, -13.411554 ], [ 136.181, -13.43906 ], [ 136.184337, -13.445733 ], [ 136.188975, -13.451755 ], [ 136.197765, -13.454848 ], [ 136.203136, -13.461196 ], [ 136.197439, -13.476495 ], [ 136.170177, -13.455987 ], [ 136.170177, -13.476495 ], [ 136.154552, -13.472914 ], [ 136.156423, -13.489353 ], [ 136.163341, -13.512791 ], [ 136.149263, -13.535073 ], [ 136.142956, -13.56045 ], [ 136.130367, -13.547319 ], [ 136.133074, -13.530693 ], [ 136.146571, -13.51321 ], [ 136.140279, -13.502711 ], [ 136.132335, -13.495294 ], [ 136.124107, -13.472084 ], [ 136.135916, -13.434828 ] ] ], [ [ [ 136.816956, -12.076077 ], [ 136.822004, -12.084449 ], [ 136.824243, -12.104028 ], [ 136.821461, -12.120832 ], [ 136.829356, -12.132257 ], [ 136.820974, -12.137953 ], [ 136.812999, -12.136163 ], [ 136.807465, -12.12656 ], [ 136.797069, -12.108355 ], [ 136.799105, -12.084558 ], [ 136.816956, -12.076077 ] ] ], [ [ [ 132.387543, -12.071873 ], [ 132.411876, -12.083673 ], [ 132.415782, -12.110284 ], [ 132.405772, -12.132989 ], [ 132.387543, -12.133396 ], [ 132.339854, -12.098565 ], [ 132.344574, -12.08587 ], [ 132.357758, -12.077813 ], [ 132.374034, -12.073419 ], [ 132.387543, -12.071873 ] ] ], [ [ [ 136.290212, -11.975681 ], [ 136.316254, -11.9874 ], [ 136.302745, -12.013279 ], [ 136.269298, -12.038995 ], [ 136.235606, -12.050714 ], [ 136.218272, -12.054132 ], [ 136.208018, -12.062188 ], [ 136.198741, -12.071384 ], [ 136.184337, -12.078058 ], [ 136.169444, -12.078383 ], [ 136.151052, -12.074477 ], [ 136.135509, -12.067315 ], [ 136.129161, -12.05755 ], [ 136.134044, -12.047947 ], [ 136.134939, -12.037774 ], [ 136.132823, -12.027276 ], [ 136.129161, -12.016697 ], [ 136.144379, -12.024102 ], [ 136.153656, -12.031915 ], [ 136.161876, -12.034763 ], [ 136.173595, -12.026951 ], [ 136.190603, -12.00628 ], [ 136.200043, -11.999933 ], [ 136.211111, -12.002374 ], [ 136.208344, -12.006117 ], [ 136.204926, -12.015802 ], [ 136.203868, -12.025811 ], [ 136.208018, -12.030369 ], [ 136.217459, -12.029229 ], [ 136.233246, -12.024591 ], [ 136.242035, -12.023533 ], [ 136.259776, -12.016046 ], [ 136.27947, -11.983087 ], [ 136.290212, -11.975681 ] ] ], [ [ [ 136.464203, -11.893731 ], [ 136.470551, -11.868259 ], [ 136.471853, -11.839614 ], [ 136.477794, -11.814223 ], [ 136.498546, -11.79811 ], [ 136.496918, -11.816502 ], [ 136.478038, -11.865818 ], [ 136.478363, -11.875584 ], [ 136.481781, -11.88242 ], [ 136.483246, -11.889418 ], [ 136.478038, -11.899835 ], [ 136.472667, -11.90545 ], [ 136.469086, -11.906508 ], [ 136.466482, -11.902765 ], [ 136.464203, -11.893731 ] ] ], [ [ [ 136.605235, -11.746026 ], [ 136.6185, -11.735447 ], [ 136.623709, -11.736586 ], [ 136.622325, -11.745212 ], [ 136.615733, -11.756524 ], [ 136.595714, -11.774184 ], [ 136.586599, -11.784356 ], [ 136.581554, -11.79811 ], [ 136.56129, -11.793634 ], [ 136.528005, -11.798517 ], [ 136.519542, -11.790704 ], [ 136.528982, -11.776544 ], [ 136.53712, -11.773126 ], [ 136.55714, -11.777032 ], [ 136.57016, -11.773207 ], [ 136.584239, -11.764337 ], [ 136.605235, -11.746026 ] ] ], [ [ [ 135.955906, -11.707165 ], [ 135.951528, -11.683485 ], [ 135.980865, -11.661368 ], [ 136.024051, -11.640872 ], [ 136.055205, -11.650048 ], [ 136.02156, -11.687457 ], [ 136.006045, -11.708678 ], [ 135.986177, -11.716369 ], [ 135.955906, -11.707165 ] ] ], [ [ [ 132.619802, -11.646661 ], [ 132.641124, -11.644708 ], [ 132.645518, -11.65016 ], [ 132.647716, -11.667169 ], [ 132.645844, -11.678888 ], [ 132.640636, -11.691176 ], [ 132.6338, -11.701918 ], [ 132.627208, -11.708754 ], [ 132.610037, -11.715509 ], [ 132.583832, -11.720147 ], [ 132.558849, -11.719171 ], [ 132.544688, -11.708754 ], [ 132.528168, -11.691664 ], [ 132.511974, -11.670587 ], [ 132.5088, -11.649591 ], [ 132.531016, -11.632989 ], [ 132.545177, -11.631606 ], [ 132.556895, -11.635675 ], [ 132.568044, -11.64186 ], [ 132.579356, -11.646661 ], [ 132.59197, -11.648614 ], [ 132.619802, -11.646661 ] ] ], [ [ [ 136.42335, -11.509535 ], [ 136.453136, -11.489353 ], [ 136.468516, -11.476007 ], [ 136.478038, -11.461114 ], [ 136.483409, -11.48447 ], [ 136.474864, -11.505955 ], [ 136.457367, -11.523858 ], [ 136.402517, -11.554783 ], [ 136.392345, -11.557306 ], [ 136.389171, -11.562433 ], [ 136.375662, -11.592055 ], [ 136.325206, -11.614679 ], [ 136.316173, -11.624119 ], [ 136.310313, -11.626153 ], [ 136.305349, -11.624688 ], [ 136.300059, -11.620864 ], [ 136.297618, -11.616388 ], [ 136.284679, -11.62477 ], [ 136.273285, -11.639093 ], [ 136.258556, -11.652114 ], [ 136.232188, -11.660333 ], [ 136.230479, -11.652114 ], [ 136.195649, -11.680434 ], [ 136.177013, -11.688246 ], [ 136.181977, -11.682794 ], [ 136.182953, -11.678155 ], [ 136.182872, -11.67311 ], [ 136.190196, -11.646417 ], [ 136.198497, -11.639581 ], [ 136.211599, -11.636163 ], [ 136.232188, -11.626153 ], [ 136.242686, -11.612481 ], [ 136.253673, -11.591892 ], [ 136.266856, -11.572931 ], [ 136.283458, -11.564711 ], [ 136.286306, -11.573663 ], [ 136.302013, -11.591078 ], [ 136.319509, -11.60296 ], [ 136.32781, -11.595473 ], [ 136.33253, -11.587091 ], [ 136.368175, -11.544203 ], [ 136.371104, -11.547621 ], [ 136.375662, -11.55047 ], [ 136.379649, -11.536065 ], [ 136.393809, -11.524835 ], [ 136.42335, -11.509535 ] ] ], [ [ [ 130.536794, -11.705011 ], [ 130.548595, -11.70143 ], [ 130.574962, -11.715427 ], [ 130.619884, -11.749119 ], [ 130.631602, -11.762384 ], [ 130.63502, -11.768162 ], [ 130.632823, -11.78753 ], [ 130.628184, -11.80462 ], [ 130.617361, -11.813165 ], [ 130.573253, -11.830987 ], [ 130.521007, -11.829522 ], [ 130.496349, -11.839044 ], [ 130.47047, -11.824802 ], [ 130.438731, -11.811619 ], [ 130.405935, -11.801853 ], [ 130.375987, -11.79811 ], [ 130.360118, -11.793715 ], [ 130.336925, -11.774591 ], [ 130.321056, -11.770196 ], [ 130.306326, -11.772556 ], [ 130.281586, -11.782322 ], [ 130.235118, -11.789727 ], [ 130.146983, -11.824802 ], [ 130.118907, -11.827813 ], [ 130.084239, -11.827813 ], [ 130.053477, -11.822849 ], [ 130.03712, -11.811212 ], [ 130.024099, -11.79518 ], [ 130.018321, -11.785252 ], [ 130.016612, -11.777032 ], [ 130.02296, -11.762384 ], [ 130.031505, -11.75921 ], [ 130.054047, -11.76336 ], [ 130.069591, -11.755629 ], [ 130.071544, -11.736749 ], [ 130.064301, -11.691339 ], [ 130.071544, -11.671157 ], [ 130.088145, -11.673598 ], [ 130.118988, -11.694513 ], [ 130.145681, -11.699395 ], [ 130.167328, -11.692641 ], [ 130.185395, -11.676528 ], [ 130.201508, -11.653497 ], [ 130.194672, -11.631117 ], [ 130.184093, -11.547296 ], [ 130.194102, -11.533868 ], [ 130.198578, -11.519952 ], [ 130.198497, -11.506606 ], [ 130.194102, -11.495212 ], [ 130.18572, -11.486423 ], [ 130.175466, -11.483575 ], [ 130.162934, -11.485121 ], [ 130.146983, -11.489028 ], [ 130.170584, -11.447035 ], [ 130.181, -11.43434 ], [ 130.193533, -11.424412 ], [ 130.217784, -11.409601 ], [ 130.228282, -11.399672 ], [ 130.2588, -11.348891 ], [ 130.269786, -11.338149 ], [ 130.289561, -11.333103 ], [ 130.308604, -11.33294 ], [ 130.326996, -11.330173 ], [ 130.344981, -11.317071 ], [ 130.349946, -11.339451 ], [ 130.360118, -11.366388 ], [ 130.37379, -11.393731 ], [ 130.399181, -11.433038 ], [ 130.398611, -11.444513 ], [ 130.386485, -11.46852 ], [ 130.383474, -11.484308 ], [ 130.386485, -11.519708 ], [ 130.396821, -11.534601 ], [ 130.445567, -11.567153 ], [ 130.461681, -11.592055 ], [ 130.465017, -11.62005 ], [ 130.462901, -11.650079 ], [ 130.456798, -11.67669 ], [ 130.448009, -11.694513 ], [ 130.448009, -11.701349 ], [ 130.458832, -11.697686 ], [ 130.465831, -11.693292 ], [ 130.473155, -11.689711 ], [ 130.485525, -11.688246 ], [ 130.497732, -11.690037 ], [ 130.530121, -11.699802 ], [ 130.536794, -11.705011 ] ] ], [ [ [ 131.537364, -11.413263 ], [ 131.53891, -11.446059 ], [ 131.536632, -11.463067 ], [ 131.530447, -11.474786 ], [ 131.519379, -11.478774 ], [ 131.496755, -11.471124 ], [ 131.482677, -11.474786 ], [ 131.471039, -11.493341 ], [ 131.460948, -11.526951 ], [ 131.458263, -11.562188 ], [ 131.469005, -11.58587 ], [ 131.469005, -11.578383 ], [ 131.473969, -11.600193 ], [ 131.455821, -11.608087 ], [ 131.432384, -11.607029 ], [ 131.420584, -11.601983 ], [ 131.417735, -11.596612 ], [ 131.396983, -11.582127 ], [ 131.386567, -11.577813 ], [ 131.378103, -11.58408 ], [ 131.325938, -11.681899 ], [ 131.302989, -11.701104 ], [ 131.293142, -11.724054 ], [ 131.281993, -11.727797 ], [ 131.268728, -11.72796 ], [ 131.257335, -11.729181 ], [ 131.22877, -11.744887 ], [ 131.214854, -11.75628 ], [ 131.208995, -11.766778 ], [ 131.201508, -11.77516 ], [ 131.098969, -11.828383 ], [ 130.979991, -11.926446 ], [ 130.961192, -11.933852 ], [ 130.941417, -11.927911 ], [ 130.92213, -11.900486 ], [ 130.894867, -11.877862 ], [ 130.860037, -11.859959 ], [ 130.808442, -11.842706 ], [ 130.760427, -11.81406 ], [ 130.752778, -11.811212 ], [ 130.735199, -11.807794 ], [ 130.712576, -11.799493 ], [ 130.690603, -11.788344 ], [ 130.674571, -11.777032 ], [ 130.673513, -11.772882 ], [ 130.681977, -11.767267 ], [ 130.680675, -11.76336 ], [ 130.675466, -11.760512 ], [ 130.664236, -11.758396 ], [ 130.66033, -11.756524 ], [ 130.612804, -11.716567 ], [ 130.582286, -11.697931 ], [ 130.574718, -11.689548 ], [ 130.563731, -11.672133 ], [ 130.558442, -11.667169 ], [ 130.537852, -11.661554 ], [ 130.514903, -11.657892 ], [ 130.496593, -11.649509 ], [ 130.488943, -11.629571 ], [ 130.48585, -11.562188 ], [ 130.482107, -11.544203 ], [ 130.478526, -11.540704 ], [ 130.466075, -11.533624 ], [ 130.461681, -11.529962 ], [ 130.437755, -11.4992 ], [ 130.430349, -11.484308 ], [ 130.407725, -11.374688 ], [ 130.406261, -11.354913 ], [ 130.404145, -11.35003 ], [ 130.399587, -11.346775 ], [ 130.394867, -11.342462 ], [ 130.392751, -11.334405 ], [ 130.393565, -11.323663 ], [ 130.395844, -11.31406 ], [ 130.400157, -11.305108 ], [ 130.406261, -11.296563 ], [ 130.380382, -11.269138 ], [ 130.370128, -11.252048 ], [ 130.365977, -11.232354 ], [ 130.367442, -11.204278 ], [ 130.372813, -11.18377 ], [ 130.383149, -11.167901 ], [ 130.400157, -11.153253 ], [ 130.436371, -11.202732 ], [ 130.506521, -11.277032 ], [ 130.516124, -11.296563 ], [ 130.525727, -11.289321 ], [ 130.534923, -11.280043 ], [ 130.545177, -11.272393 ], [ 130.558442, -11.269952 ], [ 130.573578, -11.275323 ], [ 130.587169, -11.286798 ], [ 130.596365, -11.301528 ], [ 130.598806, -11.317071 ], [ 130.590505, -11.333266 ], [ 130.562022, -11.361098 ], [ 130.558442, -11.379164 ], [ 130.566173, -11.394627 ], [ 130.57781, -11.397068 ], [ 130.590017, -11.392185 ], [ 130.598806, -11.385919 ], [ 130.638927, -11.343845 ], [ 130.658458, -11.331313 ], [ 130.668305, -11.344985 ], [ 130.653819, -11.377537 ], [ 130.657725, -11.384047 ], [ 130.668305, -11.392185 ], [ 130.691661, -11.422784 ], [ 130.695567, -11.43434 ], [ 130.723643, -11.384698 ], [ 130.784679, -11.368422 ], [ 130.84547, -11.360284 ], [ 130.87322, -11.334405 ], [ 130.888031, -11.313165 ], [ 130.920909, -11.30934 ], [ 130.953868, -11.316339 ], [ 130.968598, -11.327569 ], [ 130.975108, -11.336114 ], [ 131.003266, -11.347426 ], [ 131.009776, -11.354913 ], [ 131.018728, -11.400567 ], [ 131.023285, -11.413263 ], [ 131.02947, -11.399835 ], [ 131.048839, -11.315037 ], [ 131.061778, -11.305922 ], [ 131.079438, -11.300226 ], [ 131.099132, -11.29046 ], [ 131.134532, -11.257745 ], [ 131.153087, -11.249282 ], [ 131.161143, -11.266534 ], [ 131.162934, -11.288832 ], [ 131.168224, -11.310154 ], [ 131.176606, -11.329034 ], [ 131.217947, -11.391046 ], [ 131.219249, -11.399672 ], [ 131.230805, -11.390802 ], [ 131.228689, -11.371026 ], [ 131.215831, -11.338149 ], [ 131.215099, -11.327895 ], [ 131.216563, -11.306736 ], [ 131.215831, -11.296563 ], [ 131.212413, -11.296075 ], [ 131.205821, -11.296157 ], [ 131.198904, -11.295099 ], [ 131.19516, -11.29046 ], [ 131.195811, -11.284275 ], [ 131.200938, -11.27337 ], [ 131.205333, -11.246515 ], [ 131.214854, -11.22617 ], [ 131.229991, -11.208103 ], [ 131.249848, -11.194757 ], [ 131.274425, -11.18963 ], [ 131.292003, -11.197524 ], [ 131.302419, -11.215997 ], [ 131.305024, -11.242608 ], [ 131.300792, -11.246677 ], [ 131.292817, -11.258722 ], [ 131.290212, -11.271417 ], [ 131.301443, -11.277439 ], [ 131.315196, -11.272638 ], [ 131.3213, -11.261977 ], [ 131.32488, -11.250258 ], [ 131.331309, -11.242608 ], [ 131.343435, -11.240981 ], [ 131.351817, -11.246189 ], [ 131.359386, -11.252862 ], [ 131.369395, -11.25628 ], [ 131.382009, -11.253839 ], [ 131.402192, -11.243829 ], [ 131.414317, -11.242608 ], [ 131.427745, -11.249688 ], [ 131.43686, -11.264907 ], [ 131.439789, -11.284275 ], [ 131.434906, -11.303399 ], [ 131.455821, -11.309747 ], [ 131.46046, -11.330987 ], [ 131.460704, -11.357517 ], [ 131.4699, -11.382257 ], [ 131.47462, -11.390558 ], [ 131.480154, -11.395685 ], [ 131.482677, -11.389093 ], [ 131.503184, -11.379164 ], [ 131.517914, -11.380629 ], [ 131.527843, -11.386651 ], [ 131.533702, -11.397393 ], [ 131.537364, -11.413263 ] ] ], [ [ [ 136.763685, -11.04007 ], [ 136.747152, -11.093376 ], [ 136.733638, -11.137652 ], [ 136.720088, -11.174425 ], [ 136.716482, -11.206231 ], [ 136.708181, -11.209568 ], [ 136.7046, -11.211602 ], [ 136.702403, -11.211358 ], [ 136.680024, -11.223024 ], [ 136.668737, -11.25605 ], [ 136.63911, -11.286167 ], [ 136.627126, -11.330255 ], [ 136.611867, -11.334231 ], [ 136.589948, -11.377765 ], [ 136.542861, -11.429655 ], [ 136.53529, -11.443169 ], [ 136.524615, -11.446964 ], [ 136.522286, -11.439488 ], [ 136.516149, -11.434276 ], [ 136.509289, -11.437303 ], [ 136.494098, -11.455346 ], [ 136.478019, -11.447934 ], [ 136.494765, -11.435126 ], [ 136.500051, -11.422372 ], [ 136.482436, -11.412721 ], [ 136.497643, -11.398425 ], [ 136.529613, -11.376563 ], [ 136.560557, -11.354913 ], [ 136.563731, -11.34588 ], [ 136.580333, -11.327407 ], [ 136.578876, -11.303701 ], [ 136.585653, -11.284946 ], [ 136.616707, -11.236105 ], [ 136.653872, -11.186455 ], [ 136.688029, -11.177596 ], [ 136.700044, -11.140087 ], [ 136.709869, -11.120558 ], [ 136.711269, -11.096581 ], [ 136.722911, -11.086358 ], [ 136.731035, -11.079236 ], [ 136.734776, -11.064228 ], [ 136.718667, -11.050836 ], [ 136.738617, -11.029718 ], [ 136.742442, -11.03281 ], [ 136.745616, -11.034356 ], [ 136.748871, -11.035414 ], [ 136.752289, -11.037205 ], [ 136.756033, -11.026788 ], [ 136.762462, -11.019301 ], [ 136.763685, -11.04007 ] ] ], [ [ [ 132.489431, -11.160089 ], [ 132.493826, -11.150649 ], [ 132.501964, -11.146905 ], [ 132.510997, -11.144627 ], [ 132.517345, -11.139581 ], [ 132.517914, -11.127211 ], [ 132.511485, -11.086847 ], [ 132.507091, -11.07822 ], [ 132.495372, -11.073907 ], [ 132.487071, -11.063572 ], [ 132.480235, -11.051039 ], [ 132.472667, -11.040216 ], [ 132.46811, -11.029962 ], [ 132.482432, -11.032159 ], [ 132.50115, -11.039972 ], [ 132.510509, -11.047052 ], [ 132.518077, -11.040785 ], [ 132.534679, -11.037774 ], [ 132.55128, -11.032403 ], [ 132.55893, -11.019789 ], [ 132.560557, -11.000177 ], [ 132.566661, -10.98211 ], [ 132.578868, -10.970147 ], [ 132.599294, -10.968357 ], [ 132.59547, -10.981622 ], [ 132.582286, -10.999688 ], [ 132.579356, -11.012628 ], [ 132.581391, -11.025649 ], [ 132.586274, -11.039239 ], [ 132.599294, -11.063897 ], [ 132.593028, -11.063897 ], [ 132.599457, -11.073012 ], [ 132.606212, -11.085545 ], [ 132.611339, -11.098403 ], [ 132.613536, -11.108819 ], [ 132.610606, -11.122735 ], [ 132.603689, -11.124607 ], [ 132.594493, -11.124607 ], [ 132.585704, -11.132745 ], [ 132.582042, -11.153416 ], [ 132.596934, -11.158787 ], [ 132.618419, -11.161554 ], [ 132.634044, -11.173761 ], [ 132.612559, -11.185724 ], [ 132.612559, -11.198989 ], [ 132.62143, -11.217706 ], [ 132.627208, -11.246026 ], [ 132.621837, -11.272068 ], [ 132.600759, -11.315688 ], [ 132.599294, -11.344985 ], [ 132.565196, -11.310805 ], [ 132.560883, -11.276788 ], [ 132.549978, -11.24627 ], [ 132.534516, -11.218927 ], [ 132.493012, -11.166925 ], [ 132.489431, -11.160089 ] ] ] ] } }
]
}
